{"type":"FeatureCollection","features":[{"type":"Feature","properties":{"NOMBDEP":"AMAZONAS"},"geometry":{"type":"Polygon","coordinates":[[[-77.7586,-6.9646],[-77.8462,-6.976],[-77.8804,-6.9623],[-77.9274,-6.9862],[-78.0,-6.9703],[-78.0139,-6.8224],[-78.0577,-6.6756],[-78.1079,-6.6426],[-78.1357,-6.5265],[-78.1901,-6.4571],[-78.2553,-6.3946],[-78.3333,-6.3513],[-78.3354,-6.3183],[-78.4379,-6.1658],[-78.5191,-6.0714],[-78.5896,-6.0771],[-78.612,-6.0179],[-78.6601,-5.9553],[-78.7124,-5.8302],[-78.6836,-5.7073],[-78.6045,-5.6072],[-78.5586,-5.4991],[-78.5148,-5.4547],[-78.518,-5.3989],[-78.6045,-5.3102],[-78.6846,-5.267],[-78.7092,-5.1793],[-78.7007,-5.1042],[-78.6579,-5.0678],[-78.6195,-5.0007],[-78.6462,-4.962],[-78.6003,-4.7731],[-78.6451,-4.7367],[-78.6377,-4.6582],[-78.706,-4.6241],[-78.6612,-4.5865],[-78.6612,-4.5296],[-78.6377,-4.5012],[-78.6344,-4.4136],[-78.6526,-4.3328],[-78.6184,-4.2941],[-78.581,-4.136],[-78.5405,-4.0734],[-78.5661,-3.9937],[-78.5244,-3.9368],[-78.4892,-3.9334],[-78.4764,-3.8583],[-78.4144,-3.7923],[-78.4027,-3.7354],[-78.423,-3.6911],[-78.4005,-3.6512],[-78.3877,-3.5545],[-78.3653,-3.5295],[-78.3589,-3.4692],[-78.3183,-3.3952],[-78.2467,-3.402],[-78.2147,-3.509],[-78.1495,-3.4806],[-78.1709,-3.3508],[-77.9509,-3.0903],[-77.9327,-3.0357],[-77.8911,-3.0095],[-77.8088,-2.9856],[-77.7789,-3.187],[-77.7768,-3.4089],[-77.7608,-3.4601],[-77.6166,-3.6342],[-77.6155,-3.7081],[-77.6518,-3.7787],[-77.5696,-3.8731],[-77.5418,-3.9437],[-77.5386,-4.029],[-77.5493,-4.1098],[-77.5856,-4.2509],[-77.5653,-4.3726],[-77.5856,-4.475],[-77.655,-4.5183],[-77.6721,-4.6298],[-77.7715,-4.7174],[-77.795,-4.7629],[-77.7939,-4.8505],[-77.7597,-4.9097],[-77.7597,-4.9518],[-77.8249,-5.0314],[-77.8227,-5.0815],[-77.7747,-5.0974],[-77.6956,-5.1634],[-77.7394,-5.2123],[-77.6935,-5.2681],[-77.6817,-5.3386],[-77.6956,-5.4115],[-77.7426,-5.4069],[-77.7683,-5.4376],[-77.7661,-5.5389],[-77.7373,-5.6049],[-77.7736,-5.6857],[-77.764,-5.8199],[-77.6775,-5.8598],[-77.6518,-5.9349],[-77.6689,-5.9804],[-77.5931,-6.0088],[-77.5333,-6.0634],[-77.4788,-6.0009],[-77.4339,-6.06],[-77.3955,-6.0395],[-77.3464,-6.1146],[-77.2812,-6.142],[-77.2225,-6.1465],[-77.2,-6.2307],[-77.1328,-6.3024],[-77.1712,-6.3809],[-77.2214,-6.3809],[-77.2599,-6.3274],[-77.2866,-6.3308],[-77.2727,-6.4071],[-77.3261,-6.4685],[-77.3357,-6.522],[-77.3934,-6.6028],[-77.4361,-6.6051],[-77.3816,-6.6972],[-77.544,-6.6767],[-77.6123,-6.6119],[-77.6935,-6.679],[-77.7458,-6.6654],[-77.7469,-6.7518],[-77.7618,-6.8076],[-77.7234,-6.8929],[-77.7586,-6.9646]]]}},{"type":"Feature","properties":{"NOMBDEP":"ANCASH"},"geometry":{"type":"Polygon","coordinates":[[[-77.3175,-8.5303],[-77.2887,-8.5894],[-77.2951,-8.6327],[-77.2609,-8.6486],[-77.246,-8.7021],[-77.1648,-8.8887],[-77.1317,-8.916],[-77.1103,-8.9706],[-77.0377,-8.9991],[-76.98,-9.0628],[-76.7888,-9.1367],[-76.7333,-9.2084],[-76.7258,-9.2562],[-76.7579,-9.362],[-76.8145,-9.3256],[-76.8422,-9.2619],[-76.9352,-9.3984],[-76.9523,-9.4701],[-76.9384,-9.527],[-76.995,-9.6032],[-77.0484,-9.6476],[-76.9864,-9.7489],[-76.9704,-9.7113],[-76.901,-9.7705],[-76.8956,-9.816],[-76.8134,-9.9617],[-76.8252,-9.989],[-76.8081,-10.0846],[-76.9159,-10.1198],[-76.9063,-10.2746],[-76.9651,-10.3053],[-77.0067,-10.2837],[-77.0249,-10.3281],[-77.0719,-10.3383],[-77.1114,-10.4031],[-77.1744,-10.4646],[-77.1915,-10.5522],[-77.2524,-10.5454],[-77.3111,-10.5681],[-77.3955,-10.6614],[-77.4158,-10.7297],[-77.4948,-10.7456],[-77.5771,-10.7286],[-77.5867,-10.6466],[-77.5771,-10.5841],[-77.6412,-10.5966],[-77.6444,-10.5272],[-77.7373,-10.5636],[-77.6839,-10.4316],[-77.5974,-10.3804],[-77.6924,-10.3212],[-77.7533,-10.3224],[-77.7597,-10.4305],[-77.796,-10.4828],[-77.7725,-10.5124],[-77.7715,-10.5715],[-77.8334,-10.567],[-77.8868,-10.6114],[-77.9082,-10.5442],[-77.9605,-10.493],[-78.0107,-10.3747],[-78.0545,-10.3463],[-78.1026,-10.2006],[-78.1634,-10.1471],[-78.1752,-10.0459],[-78.2425,-9.8741],[-78.2264,-9.7955],[-78.2724,-9.7557],[-78.3215,-9.6613],[-78.3653,-9.6203],[-78.3685,-9.5555],[-78.3973,-9.4724],[-78.3803,-9.4451],[-78.4283,-9.411],[-78.4251,-9.3415],[-78.4753,-9.3313],[-78.5095,-9.279],[-78.4871,-9.2039],[-78.5084,-9.18],[-78.5725,-9.172],[-78.5608,-9.1163],[-78.6248,-9.0776],[-78.6451,-8.9695],[-78.5917,-8.9456],[-78.5885,-8.8591],[-78.565,-8.7931],[-78.518,-8.7533],[-78.4486,-8.7374],[-78.3546,-8.6736],[-78.2457,-8.6588],[-78.1933,-8.5997],[-78.2168,-8.5564],[-78.1741,-8.5041],[-78.1399,-8.4279],[-78.1378,-8.3687],[-78.1164,-8.3107],[-78.0182,-8.2242],[-77.9327,-8.1969],[-77.8975,-8.0763],[-77.811,-8.0672],[-77.7191,-8.074],[-77.6476,-8.0501],[-77.6369,-8.1059],[-77.6059,-8.1548],[-77.5568,-8.1935],[-77.4585,-8.3357],[-77.4393,-8.4199],[-77.4008,-8.4825],[-77.3175,-8.5303]]]}},{"type":"Feature","properties":{"NOMBDEP":"APURIMAC"},"geometry":{"type":"Polygon","coordinates":[[[-72.4717,-14.6609],[-72.5775,-14.6871],[-72.6448,-14.6678],[-72.7249,-14.6757],[-72.79,-14.6507],[-72.8285,-14.703],[-72.8466,-14.7599],[-72.8658,-14.711],[-72.9556,-14.6825],[-73.009,-14.637],[-73.1062,-14.6905],[-73.1532,-14.6746],[-73.1905,-14.7053],[-73.2557,-14.7087],[-73.2803,-14.7315],[-73.3507,-14.7042],[-73.3903,-14.7155],[-73.4041,-14.7656],[-73.4853,-14.843],[-73.5654,-14.7758],[-73.5708,-14.6871],[-73.5099,-14.6495],[-73.5334,-14.5813],[-73.512,-14.5642],[-73.5355,-14.4914],[-73.5686,-14.4595],[-73.512,-14.2684],[-73.6114,-14.0886],[-73.6188,-14.026],[-73.6562,-13.9304],[-73.6786,-13.9168],[-73.6979,-13.8474],[-73.7481,-13.7632],[-73.669,-13.7347],[-73.7438,-13.6551],[-73.7919,-13.6414],[-73.8143,-13.5094],[-73.8474,-13.3979],[-73.8079,-13.3035],[-73.8228,-13.2853],[-73.7972,-13.1999],[-73.7566,-13.1704],[-73.7267,-13.2682],[-73.6423,-13.2989],[-73.5718,-13.3422],[-73.481,-13.4309],[-73.4031,-13.4446],[-73.3475,-13.4343],[-73.2343,-13.4764],[-73.2119,-13.4195],[-73.103,-13.4491],[-73.0154,-13.4264],[-72.9716,-13.39],[-72.8936,-13.39],[-72.8861,-13.4161],[-72.7932,-13.4264],[-72.7452,-13.4833],[-72.6565,-13.5129],[-72.6373,-13.5424],[-72.5625,-13.5515],[-72.4215,-13.6062],[-72.4012,-13.6596],[-72.2987,-13.704],[-72.2314,-13.7051],[-72.1353,-13.7825],[-72.0776,-13.9065],[-72.0563,-13.9304],[-72.052,-14.0124],[-72.068,-14.0761],[-72.0563,-14.1284],[-72.0947,-14.1739],[-72.0819,-14.2024],[-72.1876,-14.3128],[-72.24,-14.348],[-72.2496,-14.4026],[-72.3169,-14.4402],[-72.3574,-14.4356],[-72.3927,-14.4823],[-72.4279,-14.4789],[-72.5027,-14.5517],[-72.4621,-14.6063],[-72.4717,-14.6609]]]}},{"type":"Feature","properties":{"NOMBDEP":"AREQUIPA"},"geometry":{"type":"Polygon","coordinates":[[[-75.0735,-15.4426],[-75.05,-15.4347],[-75.0041,-15.33],[-74.9678,-15.2993],[-74.94,-15.206],[-74.8706,-15.1513],[-74.8161,-15.14],[-74.7627,-15.0979],[-74.7189,-15.1354],[-74.6057,-15.1491],[-74.5523,-15.14],[-74.4519,-15.1764],[-74.3985,-15.1809],[-74.3878,-15.2515],[-74.4092,-15.3084],[-74.3099,-15.3584],[-74.328,-15.3914],[-74.3003,-15.4779],[-74.1934,-15.4915],[-74.1518,-15.429],[-74.0941,-15.3926],[-74.0375,-15.4563],[-74.0845,-15.5917],[-74.0685,-15.6304],[-73.9457,-15.4904],[-73.8688,-15.4267],[-73.8752,-15.355],[-73.8602,-15.3266],[-73.8079,-15.3243],[-73.7587,-15.3857],[-73.684,-15.4369],[-73.6519,-15.4165],[-73.5569,-15.4085],[-73.4426,-15.3561],[-73.3924,-15.3982],[-73.2941,-15.3926],[-73.2845,-15.2947],[-73.2461,-15.2856],[-73.1745,-15.3061],[-73.1168,-15.223],[-73.1104,-15.1866],[-73.0474,-15.1343],[-73.0047,-15.0637],[-72.9865,-14.9556],[-73.0314,-14.8999],[-73.0026,-14.8145],[-72.9427,-14.7656],[-72.8466,-14.7599],[-72.8285,-14.703],[-72.79,-14.6507],[-72.7249,-14.6757],[-72.6448,-14.6678],[-72.5775,-14.6871],[-72.4717,-14.6609],[-72.4856,-14.7121],[-72.4707,-14.7747],[-72.4066,-14.8271],[-72.3158,-14.8339],[-72.2528,-14.8032],[-72.1449,-14.7781],[-72.1289,-14.8305],[-72.0466,-14.8748],[-72.0338,-14.8123],[-72.0424,-14.6939],[-71.9879,-14.6325],[-71.9409,-14.6848],[-71.9591,-14.7281],[-71.9238,-14.7895],[-71.8896,-14.7906],[-71.8523,-14.8885],[-71.7978,-14.8965],[-71.7454,-14.9397],[-71.7679,-15.0102],[-71.8031,-15.0671],[-71.6675,-15.0922],[-71.6365,-15.1388],[-71.5874,-15.1252],[-71.5703,-15.0614],[-71.5115,-15.0797],[-71.4859,-15.0592],[-71.5073,-14.9761],[-71.4304,-14.9977],[-71.3727,-15.0797],[-71.3161,-15.1206],[-71.2605,-15.0774],[-71.2071,-15.0717],[-71.1431,-15.1206],[-71.1804,-15.1627],[-71.1601,-15.2082],[-71.2018,-15.2458],[-71.1655,-15.289],[-71.1516,-15.3641],[-71.174,-15.4244],[-71.0715,-15.4494],[-71.0395,-15.4051],[-70.9935,-15.4551],[-71.0149,-15.4893],[-71.0085,-15.5644],[-70.9177,-15.644],[-70.9006,-15.7123],[-70.9359,-15.7851],[-70.8429,-15.9228],[-70.8205,-15.9785],[-70.813,-16.0536],[-70.8568,-16.0559],[-70.875,-16.0946],[-70.8536,-16.2414],[-70.9572,-16.3085],[-70.9861,-16.3097],[-70.9754,-16.4121],[-70.9529,-16.461],[-70.9925,-16.4963],[-71.0779,-16.4587],[-71.1399,-16.4746],[-71.2456,-16.4667],[-71.2445,-16.5497],[-71.2787,-16.6157],[-71.2894,-16.7261],[-71.3278,-16.7523],[-71.3695,-16.7193],[-71.425,-16.7409],[-71.4443,-16.8046],[-71.441,-16.8649],[-71.3844,-17.0208],[-71.3396,-17.0219],[-71.3022,-17.0936],[-71.441,-17.2518],[-71.4912,-17.2848],[-71.6899,-17.212],[-71.8127,-17.1846],[-71.8576,-17.1585],[-71.9227,-17.0879],[-72.0392,-17.0174],[-72.0765,-17.0208],[-72.2111,-16.9025],[-72.288,-16.8752],[-72.2955,-16.8274],[-72.3596,-16.7636],[-72.4472,-16.7045],[-72.5433,-16.6783],[-72.7088,-16.6521],[-72.7719,-16.6282],[-72.916,-16.5202],[-72.9865,-16.5179],[-73.0538,-16.4894],[-73.1596,-16.42],[-73.2247,-16.4132],[-73.3048,-16.3802],[-73.3144,-16.3392],[-73.4511,-16.2812],[-73.6199,-16.23],[-73.6989,-16.2209],[-73.7278,-16.1947],[-73.8698,-16.1356],[-73.889,-16.1094],[-74.0332,-16.0184],[-74.0546,-15.9546],[-74.1667,-15.9012],[-74.2415,-15.8784],[-74.2757,-15.8409],[-74.328,-15.8488],[-74.3932,-15.8295],[-74.4391,-15.7942],[-74.4626,-15.7271],[-74.6613,-15.6531],[-74.7499,-15.6008],[-74.8311,-15.5666],[-74.9101,-15.512],[-75.0073,-15.4597],[-75.0735,-15.4426]],[[-71.1858,-16.3847],[-71.1035,-16.4086],[-71.0961,-16.3506],[-71.1975,-16.3574],[-71.1858,-16.3847]]]}},{"type":"Feature","properties":{"NOMBDEP":"AYACUCHO"},"geometry":{"type":"Polygon","coordinates":[[[-74.3462,-12.1736],[-74.3216,-12.2294],[-74.2703,-12.2396],[-74.1881,-12.3147],[-74.1219,-12.3341],[-74.0984,-12.2851],[-73.9809,-12.243],[-73.9659,-12.3363],[-73.8869,-12.4057],[-73.8271,-12.5309],[-73.8015,-12.6128],[-73.7481,-12.6572],[-73.7256,-12.6401],[-73.6252,-12.7653],[-73.5911,-12.8438],[-73.5238,-12.8996],[-73.5216,-12.9906],[-73.4778,-13.0327],[-73.449,-13.1078],[-73.4223,-13.1328],[-73.3486,-13.2978],[-73.2877,-13.3718],[-73.2119,-13.4195],[-73.2343,-13.4764],[-73.3475,-13.4343],[-73.4031,-13.4446],[-73.481,-13.4309],[-73.5718,-13.3422],[-73.6423,-13.2989],[-73.7267,-13.2682],[-73.7566,-13.1704],[-73.7972,-13.1999],[-73.8228,-13.2853],[-73.8079,-13.3035],[-73.8474,-13.3979],[-73.8143,-13.5094],[-73.7919,-13.6414],[-73.7438,-13.6551],[-73.669,-13.7347],[-73.7481,-13.7632],[-73.6979,-13.8474],[-73.6786,-13.9168],[-73.6562,-13.9304],[-73.6188,-14.026],[-73.6114,-14.0886],[-73.512,-14.2684],[-73.5686,-14.4595],[-73.5355,-14.4914],[-73.512,-14.5642],[-73.5334,-14.5813],[-73.5099,-14.6495],[-73.5708,-14.6871],[-73.5654,-14.7758],[-73.4853,-14.843],[-73.4041,-14.7656],[-73.3903,-14.7155],[-73.3507,-14.7042],[-73.2803,-14.7315],[-73.2557,-14.7087],[-73.1905,-14.7053],[-73.1532,-14.6746],[-73.1062,-14.6905],[-73.009,-14.637],[-72.9556,-14.6825],[-72.8658,-14.711],[-72.8466,-14.7599],[-72.9427,-14.7656],[-73.0026,-14.8145],[-73.0314,-14.8999],[-72.9865,-14.9556],[-73.0047,-15.0637],[-73.0474,-15.1343],[-73.1104,-15.1866],[-73.1168,-15.223],[-73.1745,-15.3061],[-73.2461,-15.2856],[-73.2845,-15.2947],[-73.2941,-15.3926],[-73.3924,-15.3982],[-73.4426,-15.3561],[-73.5569,-15.4085],[-73.6519,-15.4165],[-73.684,-15.4369],[-73.7587,-15.3857],[-73.8079,-15.3243],[-73.8602,-15.3266],[-73.8752,-15.355],[-73.8688,-15.4267],[-73.9457,-15.4904],[-74.0685,-15.6304],[-74.0845,-15.5917],[-74.0375,-15.4563],[-74.0941,-15.3926],[-74.1518,-15.429],[-74.1934,-15.4915],[-74.3003,-15.4779],[-74.328,-15.3914],[-74.3099,-15.3584],[-74.4092,-15.3084],[-74.3878,-15.2515],[-74.3985,-15.1809],[-74.4519,-15.1764],[-74.5523,-15.14],[-74.6057,-15.1491],[-74.7189,-15.1354],[-74.7627,-15.0979],[-74.6645,-15.0444],[-74.6634,-14.9078],[-74.6944,-14.8384],[-74.7467,-14.8441],[-74.7563,-14.7713],[-74.8022,-14.752],[-74.846,-14.7076],[-74.8524,-14.612],[-74.8952,-14.5449],[-74.9592,-14.6063],[-75.0596,-14.6222],[-75.0693,-14.5267],[-75.0981,-14.4846],[-75.1013,-14.4334],[-75.1376,-14.4152],[-75.0938,-14.3128],[-75.0404,-14.2775],[-75.0906,-14.2149],[-75.0586,-14.1296],[-75.0287,-14.0715],[-74.9422,-14.0943],[-74.8418,-14.0738],[-74.7702,-14.0897],[-74.7841,-14.0169],[-74.7681,-13.9782],[-74.7862,-13.9293],[-74.7606,-13.8314],[-74.7755,-13.8041],[-74.7542,-13.7336],[-74.7809,-13.6483],[-74.7713,-13.6062],[-74.8001,-13.547],[-74.8621,-13.4821],[-74.9016,-13.4662],[-74.8973,-13.3957],[-74.8685,-13.3604],[-74.7638,-13.341],[-74.6997,-13.3638],[-74.6442,-13.2739],[-74.5705,-13.1852],[-74.5448,-13.1999],[-74.4583,-13.1897],[-74.4209,-13.159],[-74.4081,-13.0691],[-74.3868,-13.0293],[-74.3462,-13.0259],[-74.3099,-13.06],[-74.2703,-13.0259],[-74.297,-12.9348],[-74.328,-12.928],[-74.3302,-12.8358],[-74.2928,-12.8245],[-74.2896,-12.7585],[-74.3483,-12.713],[-74.328,-12.6811],[-74.3408,-12.6344],[-74.4156,-12.4911],[-74.422,-12.4456],[-74.5032,-12.4501],[-74.5812,-12.3329],[-74.5523,-12.2874],[-74.3846,-12.2692],[-74.3889,-12.193],[-74.3462,-12.1736]],[[-73.7406,-15.2663],[-73.7395,-15.3084],[-73.685,-15.3345],[-73.6402,-15.2924],[-73.7406,-15.2663]]]}},{"type":"Feature","properties":{"NOMBDEP":"CAJAMARCA"},"geometry":{"type":"Polygon","coordinates":[[[-79.3223,-7.0261],[-79.2966,-6.9999],[-79.3105,-6.9009],[-79.2625,-6.8588],[-79.1204,-6.7769],[-79.1418,-6.7018],[-79.2133,-6.6961],[-79.2294,-6.671],[-79.2966,-6.6756],[-79.3671,-6.5493],[-79.4035,-6.5402],[-79.4312,-6.4799],[-79.4227,-6.4514],[-79.4537,-6.3968],[-79.4227,-6.3104],[-79.3533,-6.3047],[-79.3223,-6.2626],[-79.2518,-6.2262],[-79.2721,-6.1465],[-79.224,-6.0555],[-79.2646,-6.002],[-79.4184,-5.9701],[-79.334,-5.8939],[-79.3896,-5.7915],[-79.4003,-5.7494],[-79.3757,-5.606],[-79.3981,-5.5366],[-79.2721,-5.5184],[-79.2977,-5.4581],[-79.3276,-5.3159],[-79.3586,-5.2886],[-79.349,-5.2328],[-79.3789,-5.1907],[-79.2945,-5.1099],[-79.2454,-5.0018],[-79.2101,-4.9654],[-79.0734,-4.9711],[-79.0115,-5.0144],[-78.9741,-4.8972],[-78.8951,-4.8915],[-78.8919,-4.8084],[-78.9132,-4.7913],[-78.8822,-4.714],[-78.8395,-4.6559],[-78.8021,-4.6377],[-78.706,-4.6241],[-78.6377,-4.6582],[-78.6451,-4.7367],[-78.6003,-4.7731],[-78.6462,-4.962],[-78.6195,-5.0007],[-78.6579,-5.0678],[-78.7007,-5.1042],[-78.7092,-5.1793],[-78.6846,-5.267],[-78.6045,-5.3102],[-78.518,-5.3989],[-78.5148,-5.4547],[-78.5586,-5.4991],[-78.6045,-5.6072],[-78.6836,-5.7073],[-78.7124,-5.8302],[-78.6601,-5.9553],[-78.612,-6.0179],[-78.5896,-6.0771],[-78.5191,-6.0714],[-78.4379,-6.1658],[-78.3354,-6.3183],[-78.3333,-6.3513],[-78.2553,-6.3946],[-78.1901,-6.4571],[-78.1357,-6.5265],[-78.1079,-6.6426],[-78.0577,-6.6756],[-78.0139,-6.8224],[-78.0,-6.9703],[-77.8975,-7.1671],[-77.8804,-7.2218],[-77.8313,-7.3105],[-77.8131,-7.3924],[-77.7715,-7.4186],[-77.7415,-7.4664],[-77.8441,-7.5142],[-77.8708,-7.5859],[-77.999,-7.6792],[-78.0812,-7.6962],[-78.1164,-7.6541],[-78.2243,-7.7588],[-78.2724,-7.7531],[-78.3023,-7.6962],[-78.3301,-7.6997],[-78.3824,-7.6302],[-78.3568,-7.5745],[-78.36,-7.5005],[-78.4155,-7.4846],[-78.4913,-7.5551],[-78.6248,-7.5483],[-78.6494,-7.529],[-78.6302,-7.4459],[-78.6622,-7.4129],[-78.7605,-7.4015],[-78.8417,-7.4379],[-78.8865,-7.4846],[-78.8961,-7.5369],[-78.9442,-7.5984],[-78.9613,-7.6576],[-78.9923,-7.661],[-79.0414,-7.5995],[-79.0659,-7.4732],[-79.1525,-7.4402],[-79.1877,-7.3958],[-79.2561,-7.3822],[-79.2934,-7.3469],[-79.3468,-7.3367],[-79.2828,-7.2752],[-79.2667,-7.1922],[-79.3052,-7.1467],[-79.3223,-7.0261]]]}},{"type":"Feature","properties":{"NOMBDEP":"CALLAO"},"geometry":{"type":"Polygon","coordinates":[[[-77.1872,-11.8289],[-77.1263,-11.8209],[-77.09,-11.9017],[-77.1178,-11.9574],[-77.0826,-12.0359],[-77.1114,-12.0792],[-77.1509,-12.0667],[-77.1328,-11.9768],[-77.1573,-11.8744],[-77.1872,-11.8289]]]}},{"type":"Feature","properties":{"NOMBDEP":"CUSCO"},"geometry":{"type":"Polygon","coordinates":[[[-72.4717,-14.6609],[-72.4621,-14.6063],[-72.5027,-14.5517],[-72.4279,-14.4789],[-72.3927,-14.4823],[-72.3574,-14.4356],[-72.3169,-14.4402],[-72.2496,-14.4026],[-72.24,-14.348],[-72.1876,-14.3128],[-72.0819,-14.2024],[-72.0947,-14.1739],[-72.0563,-14.1284],[-72.068,-14.0761],[-72.052,-14.0124],[-72.0563,-13.9304],[-72.0776,-13.9065],[-72.1353,-13.7825],[-72.2314,-13.7051],[-72.2987,-13.704],[-72.4012,-13.6596],[-72.4215,-13.6062],[-72.5625,-13.5515],[-72.6373,-13.5424],[-72.6565,-13.5129],[-72.7452,-13.4833],[-72.7932,-13.4264],[-72.8861,-13.4161],[-72.8936,-13.39],[-72.9716,-13.39],[-73.0154,-13.4264],[-73.103,-13.4491],[-73.2119,-13.4195],[-73.2877,-13.3718],[-73.3486,-13.2978],[-73.4223,-13.1328],[-73.449,-13.1078],[-73.4778,-13.0327],[-73.5216,-12.9906],[-73.5238,-12.8996],[-73.5911,-12.8438],[-73.6252,-12.7653],[-73.7256,-12.6401],[-73.7481,-12.6572],[-73.8015,-12.6128],[-73.8271,-12.5309],[-73.8869,-12.4057],[-73.9659,-12.3363],[-73.9809,-12.243],[-73.9243,-12.2248],[-73.8431,-12.2396],[-73.8015,-12.2203],[-73.7374,-12.2669],[-73.7075,-12.2681],[-73.637,-12.3784],[-73.59,-12.3773],[-73.574,-12.2772],[-73.4693,-12.2203],[-73.4458,-12.16],[-73.3614,-12.1361],[-73.4074,-12.0655],[-73.3977,-12.0211],[-73.4373,-11.9893],[-73.4415,-11.9438],[-73.4907,-11.8778],[-73.5772,-11.8368],[-73.574,-11.7344],[-73.6081,-11.6605],[-73.5601,-11.5922],[-73.4501,-11.5319],[-73.48,-11.4716],[-73.4202,-11.384],[-73.3315,-11.3111],[-73.2578,-11.3123],[-73.2034,-11.2895],[-73.1371,-11.2941],[-73.0261,-11.2645],[-72.9897,-11.1985],[-72.9684,-11.2645],[-72.9395,-11.2816],[-72.9524,-11.3305],[-72.8968,-11.3578],[-72.7943,-11.384],[-72.7387,-11.3476],[-72.7067,-11.3817],[-72.6095,-11.4283],[-72.5347,-11.4352],[-72.4803,-11.3874],[-72.3788,-11.3328],[-72.3072,-11.3066],[-72.2389,-11.3453],[-72.2474,-11.3851],[-72.2923,-11.4329],[-72.3158,-11.5956],[-72.429,-11.7094],[-72.3703,-11.7845],[-72.3916,-11.8266],[-72.3318,-11.855],[-72.3478,-11.8914],[-72.3372,-11.9677],[-72.2848,-11.9768],[-72.2592,-12.0064],[-72.2688,-12.0541],[-72.1737,-12.0598],[-72.0947,-12.0849],[-72.0872,-12.1429],[-72.1054,-12.2385],[-72.0338,-12.2646],[-71.9729,-12.3204],[-71.9761,-12.3989],[-72.0616,-12.441],[-72.0712,-12.5116],[-72.0317,-12.5252],[-71.9815,-12.581],[-71.9559,-12.6549],[-71.9783,-12.6834],[-71.8811,-12.73],[-71.8106,-12.7448],[-71.7465,-12.796],[-71.6952,-12.7391],[-71.6002,-12.7004],[-71.5521,-12.7095],[-71.4507,-12.8245],[-71.4154,-12.8939],[-71.3545,-12.8836],[-71.3011,-12.9405],[-71.2392,-12.9724],[-71.173,-12.9838],[-71.1687,-13.0941],[-71.1217,-13.2341],[-71.0405,-13.2682],[-70.9743,-13.1681],[-70.9209,-13.1112],[-70.8429,-13.0668],[-70.7586,-13.1078],[-70.6592,-13.0884],[-70.5877,-13.1032],[-70.5503,-13.1533],[-70.4638,-13.1601],[-70.3879,-13.192],[-70.42,-13.2591],[-70.3933,-13.3137],[-70.3997,-13.3718],[-70.4424,-13.3934],[-70.4531,-13.448],[-70.5343,-13.5254],[-70.5417,-13.5743],[-70.6165,-13.6096],[-70.6539,-13.6562],[-70.7148,-13.6619],[-70.7351,-13.7393],[-70.6987,-13.803],[-70.7212,-13.8292],[-70.7682,-13.8144],[-70.8312,-13.8588],[-70.8333,-13.9384],[-70.8622,-14.026],[-70.7959,-14.0727],[-70.8088,-14.1239],[-70.8664,-14.1694],[-70.8995,-14.2297],[-70.8803,-14.2707],[-70.9134,-14.3275],[-70.9626,-14.3617],[-70.9861,-14.4072],[-70.9626,-14.4447],[-70.9967,-14.5062],[-71.001,-14.5722],[-71.1132,-14.6666],[-71.0533,-14.7542],[-71.0128,-14.7394],[-70.9754,-14.7645],[-70.9935,-14.8293],[-70.985,-14.9465],[-71.0042,-14.9716],[-70.9764,-15.1752],[-70.9626,-15.2162],[-70.985,-15.2492],[-70.9519,-15.2902],[-71.0128,-15.3436],[-71.0395,-15.4051],[-71.0715,-15.4494],[-71.174,-15.4244],[-71.1516,-15.3641],[-71.1655,-15.289],[-71.2018,-15.2458],[-71.1601,-15.2082],[-71.1804,-15.1627],[-71.1431,-15.1206],[-71.2071,-15.0717],[-71.2605,-15.0774],[-71.3161,-15.1206],[-71.3727,-15.0797],[-71.4304,-14.9977],[-71.5073,-14.9761],[-71.4859,-15.0592],[-71.5115,-15.0797],[-71.5703,-15.0614],[-71.5874,-15.1252],[-71.6365,-15.1388],[-71.6675,-15.0922],[-71.8031,-15.0671],[-71.7679,-15.0102],[-71.7454,-14.9397],[-71.7978,-14.8965],[-71.8523,-14.8885],[-71.8896,-14.7906],[-71.9238,-14.7895],[-71.9591,-14.7281],[-71.9409,-14.6848],[-71.9879,-14.6325],[-72.0424,-14.6939],[-72.0338,-14.8123],[-72.0466,-14.8748],[-72.1289,-14.8305],[-72.1449,-14.7781],[-72.2528,-14.8032],[-72.3158,-14.8339],[-72.4066,-14.8271],[-72.4707,-14.7747],[-72.4856,-14.7121],[-72.4717,-14.6609]],[[-71.2445,-14.4834],[-71.1698,-14.5232],[-71.1569,-14.5005],[-71.2477,-14.439],[-71.2445,-14.4834]]]}},{"type":"Feature","properties":{"NOMBDEP":"HUANCAVELICA"},"geometry":{"type":"Polygon","coordinates":[[[-75.0586,-14.1296],[-75.1088,-14.0328],[-75.1654,-14.0727],[-75.2583,-14.0431],[-75.2327,-14.0044],[-75.3331,-14.0158],[-75.4335,-13.9134],[-75.5456,-13.8895],[-75.5638,-13.8405],[-75.5253,-13.8178],[-75.5413,-13.7814],[-75.5157,-13.696],[-75.4847,-13.6505],[-75.5136,-13.6175],[-75.4773,-13.5254],[-75.4655,-13.4321],[-75.5029,-13.3661],[-75.5392,-13.4048],[-75.5851,-13.4025],[-75.6898,-13.44],[-75.7122,-13.4161],[-75.8062,-13.4013],[-75.7902,-13.3422],[-75.7069,-13.2887],[-75.7058,-13.1863],[-75.6941,-13.1476],[-75.7186,-13.1101],[-75.6951,-13.0748],[-75.6289,-13.0566],[-75.614,-12.9644],[-75.6364,-12.9166],[-75.6129,-12.8666],[-75.5307,-12.8222],[-75.5072,-12.7767],[-75.5766,-12.7152],[-75.552,-12.6811],[-75.5798,-12.6413],[-75.5392,-12.6219],[-75.4911,-12.6481],[-75.4174,-12.6288],[-75.3619,-12.54],[-75.2786,-12.4683],[-75.2156,-12.4638],[-75.2156,-12.3944],[-75.1397,-12.342],[-75.0714,-12.2351],[-75.0479,-12.1702],[-75.0746,-12.0598],[-75.0468,-12.012],[-74.9304,-12.0234],[-74.8375,-12.0712],[-74.7488,-12.0416],[-74.7168,-12.0598],[-74.6591,-11.9961],[-74.6239,-11.9847],[-74.4551,-12.0337],[-74.4199,-12.094],[-74.3526,-12.1474],[-74.3462,-12.1736],[-74.3889,-12.193],[-74.3846,-12.2692],[-74.5523,-12.2874],[-74.5812,-12.3329],[-74.5032,-12.4501],[-74.422,-12.4456],[-74.4156,-12.4911],[-74.3408,-12.6344],[-74.328,-12.6811],[-74.3483,-12.713],[-74.2896,-12.7585],[-74.2928,-12.8245],[-74.3302,-12.8358],[-74.328,-12.928],[-74.297,-12.9348],[-74.2703,-13.0259],[-74.3099,-13.06],[-74.3462,-13.0259],[-74.3868,-13.0293],[-74.4081,-13.0691],[-74.4209,-13.159],[-74.4583,-13.1897],[-74.5448,-13.1999],[-74.5705,-13.1852],[-74.6442,-13.2739],[-74.6997,-13.3638],[-74.7638,-13.341],[-74.8685,-13.3604],[-74.8973,-13.3957],[-74.9016,-13.4662],[-74.8621,-13.4821],[-74.8001,-13.547],[-74.7713,-13.6062],[-74.7809,-13.6483],[-74.7542,-13.7336],[-74.7755,-13.8041],[-74.7606,-13.8314],[-74.7862,-13.9293],[-74.7681,-13.9782],[-74.7841,-14.0169],[-74.7702,-14.0897],[-74.8418,-14.0738],[-74.9422,-14.0943],[-75.0287,-14.0715],[-75.0586,-14.1296]]]}},{"type":"Feature","properties":{"NOMBDEP":"HUANUCO"},"geometry":{"type":"Polygon","coordinates":[[[-77.3175,-8.5303],[-77.2641,-8.4677],[-77.2043,-8.4859],[-77.1338,-8.4404],[-77.089,-8.4825],[-77.0922,-8.5166],[-77.0494,-8.5542],[-76.9159,-8.5701],[-76.8476,-8.5462],[-76.8316,-8.5166],[-76.697,-8.5325],[-76.6244,-8.5121],[-76.5432,-8.5098],[-76.4663,-8.5701],[-76.4439,-8.4893],[-76.4172,-8.4438],[-76.3338,-8.429],[-76.3242,-8.5246],[-76.2783,-8.5769],[-76.2666,-8.6554],[-76.2302,-8.7965],[-76.1662,-8.7567],[-76.116,-8.6577],[-76.1309,-8.4677],[-76.0871,-8.3368],[-75.9846,-8.322],[-75.9461,-8.4006],[-75.9654,-8.4518],[-75.9664,-8.5917],[-75.9792,-8.6361],[-75.9461,-8.7157],[-75.9216,-8.7806],[-75.9173,-8.8796],[-75.8746,-8.9706],[-75.8756,-9.0218],[-75.8062,-9.1219],[-75.7945,-9.1879],[-75.7315,-9.2721],[-75.6706,-9.3962],[-75.5627,-9.4007],[-75.4943,-9.3768],[-75.4516,-9.2972],[-75.3288,-9.2972],[-75.2829,-9.3097],[-75.2626,-9.2699],[-75.2102,-9.23],[-75.2102,-9.1595],[-75.238,-9.1072],[-75.1814,-9.081],[-75.1515,-9.0389],[-75.143,-8.9718],[-75.0949,-8.9228],[-75.0458,-8.9046],[-74.9785,-8.9524],[-74.9347,-8.9308],[-74.9411,-8.858],[-74.8503,-8.7567],[-74.8471,-8.6611],[-74.798,-8.6315],[-74.6175,-8.5485],[-74.547,-8.5849],[-74.5256,-8.7499],[-74.532,-8.776],[-74.6089,-8.8204],[-74.6442,-8.9183],[-74.6516,-9.0491],[-74.6783,-9.0935],[-74.641,-9.1185],[-74.6399,-9.1595],[-74.5897,-9.3029],[-74.6741,-9.395],[-74.6773,-9.428],[-74.7275,-9.4701],[-74.751,-9.5247],[-74.735,-9.5725],[-74.8065,-9.6863],[-74.8044,-9.7295],[-74.8492,-9.7478],[-74.8973,-9.7375],[-74.9432,-9.7614],[-74.9998,-9.8388],[-75.0596,-9.8194],[-75.1088,-9.8467],[-75.16,-9.8399],[-75.2412,-9.7853],[-75.3032,-9.7842],[-75.2754,-9.8502],[-75.2882,-9.8706],[-75.3694,-9.8706],[-75.3961,-9.9139],[-75.4762,-9.9742],[-75.5488,-9.9833],[-75.5905,-9.9526],[-75.6086,-10.0231],[-75.6748,-10.047],[-75.7026,-10.1335],[-75.7037,-10.2063],[-75.7859,-10.2518],[-75.8404,-10.2586],[-75.8564,-10.3019],[-75.9248,-10.3565],[-75.9248,-10.4066],[-75.976,-10.4794],[-76.0572,-10.4646],[-76.0786,-10.4339],[-76.1309,-10.4293],[-76.2228,-10.3747],[-76.2708,-10.3713],[-76.3093,-10.4054],[-76.336,-10.286],[-76.4727,-10.3383],[-76.4908,-10.3793],[-76.6468,-10.4157],[-76.697,-10.443],[-76.7248,-10.4862],[-76.7696,-10.4646],[-76.8081,-10.3929],[-76.8561,-10.377],[-76.9063,-10.2746],[-76.9159,-10.1198],[-76.8081,-10.0846],[-76.8252,-9.989],[-76.8134,-9.9617],[-76.8956,-9.816],[-76.901,-9.7705],[-76.9704,-9.7113],[-76.9864,-9.7489],[-77.0484,-9.6476],[-76.995,-9.6032],[-76.9384,-9.527],[-76.9523,-9.4701],[-76.9352,-9.3984],[-76.8422,-9.2619],[-76.8145,-9.3256],[-76.7579,-9.362],[-76.7258,-9.2562],[-76.7333,-9.2084],[-76.7888,-9.1367],[-76.98,-9.0628],[-77.0377,-8.9991],[-77.1103,-8.9706],[-77.1317,-8.916],[-77.1648,-8.8887],[-77.246,-8.7021],[-77.2609,-8.6486],[-77.2951,-8.6327],[-77.2887,-8.5894],[-77.3175,-8.5303]]]}},{"type":"Feature","properties":{"NOMBDEP":"ICA"},"geometry":{"type":"Polygon","coordinates":[[[-74.7627,-15.0979],[-74.8161,-15.14],[-74.8706,-15.1513],[-74.94,-15.206],[-74.9678,-15.2993],[-75.0041,-15.33],[-75.05,-15.4347],[-75.0735,-15.4426],[-75.0821,-15.4233],[-75.1857,-15.3675],[-75.1686,-15.3072],[-75.2305,-15.2776],[-75.2166,-15.231],[-75.2743,-15.1684],[-75.3683,-15.1411],[-75.4431,-15.0011],[-75.4997,-14.967],[-75.5029,-14.9192],[-75.5744,-14.868],[-75.6802,-14.8179],[-75.7849,-14.7485],[-75.8553,-14.7167],[-75.9162,-14.6587],[-75.9323,-14.5688],[-75.9739,-14.5255],[-75.9718,-14.4709],[-76.0391,-14.4243],[-76.0658,-14.3867],[-76.132,-14.3537],[-76.1095,-14.2923],[-76.1437,-14.2274],[-76.2302,-14.1489],[-76.2901,-14.1614],[-76.2666,-14.0146],[-76.2826,-13.9179],[-76.3296,-13.9247],[-76.3969,-13.9088],[-76.3712,-13.8087],[-76.2965,-13.7939],[-76.3007,-13.8383],[-76.2612,-13.8656],[-76.1971,-13.6414],[-76.1875,-13.5663],[-76.1918,-13.4241],[-76.2452,-13.324],[-76.2078,-13.3058],[-76.1555,-13.1943],[-76.0124,-13.085],[-75.9376,-12.9917],[-75.8019,-13.06],[-75.7624,-13.019],[-75.725,-13.0384],[-75.6706,-13.0224],[-75.614,-12.9644],[-75.6289,-13.0566],[-75.6951,-13.0748],[-75.7186,-13.1101],[-75.6941,-13.1476],[-75.7058,-13.1863],[-75.7069,-13.2887],[-75.7902,-13.3422],[-75.8062,-13.4013],[-75.7122,-13.4161],[-75.6898,-13.44],[-75.5851,-13.4025],[-75.5392,-13.4048],[-75.5029,-13.3661],[-75.4655,-13.4321],[-75.4773,-13.5254],[-75.5136,-13.6175],[-75.4847,-13.6505],[-75.5157,-13.696],[-75.5413,-13.7814],[-75.5253,-13.8178],[-75.5638,-13.8405],[-75.5456,-13.8895],[-75.4335,-13.9134],[-75.3331,-14.0158],[-75.2327,-14.0044],[-75.2583,-14.0431],[-75.1654,-14.0727],[-75.1088,-14.0328],[-75.0586,-14.1296],[-75.0906,-14.2149],[-75.0404,-14.2775],[-75.0938,-14.3128],[-75.1376,-14.4152],[-75.1013,-14.4334],[-75.0981,-14.4846],[-75.0693,-14.5267],[-75.0596,-14.6222],[-74.9592,-14.6063],[-74.8952,-14.5449],[-74.8524,-14.612],[-74.846,-14.7076],[-74.8022,-14.752],[-74.7563,-14.7713],[-74.7467,-14.8441],[-74.6944,-14.8384],[-74.6634,-14.9078],[-74.6645,-15.0444],[-74.7627,-15.0979]]]}},{"type":"Feature","properties":{"NOMBDEP":"JUNIN"},"geometry":{"type":"Polygon","coordinates":[[[-74.5726,-10.9129],[-74.5085,-10.9504],[-74.5,-10.996],[-74.4455,-11.0051],[-74.3739,-11.0563],[-74.2565,-11.0187],[-74.202,-11.0199],[-74.092,-10.9869],[-74.0055,-10.9937],[-73.9788,-11.0699],[-73.9788,-11.1211],[-73.8613,-11.145],[-73.8666,-11.0369],[-73.8538,-10.955],[-73.8239,-10.9209],[-73.8143,-10.8003],[-73.7577,-10.7354],[-73.6957,-10.7729],[-73.6103,-10.8469],[-73.5601,-10.8606],[-73.5718,-10.9584],[-73.543,-11.0472],[-73.4821,-11.0654],[-73.4501,-11.2247],[-73.4597,-11.3032],[-73.4843,-11.3191],[-73.4202,-11.384],[-73.48,-11.4716],[-73.4501,-11.5319],[-73.5601,-11.5922],[-73.6081,-11.6605],[-73.574,-11.7344],[-73.5772,-11.8368],[-73.4907,-11.8778],[-73.4415,-11.9438],[-73.4373,-11.9893],[-73.3977,-12.0211],[-73.4074,-12.0655],[-73.3614,-12.1361],[-73.4458,-12.16],[-73.4693,-12.2203],[-73.574,-12.2772],[-73.59,-12.3773],[-73.637,-12.3784],[-73.7075,-12.2681],[-73.7374,-12.2669],[-73.8015,-12.2203],[-73.8431,-12.2396],[-73.9243,-12.2248],[-73.9809,-12.243],[-74.0984,-12.2851],[-74.1219,-12.3341],[-74.1881,-12.3147],[-74.2703,-12.2396],[-74.3216,-12.2294],[-74.3462,-12.1736],[-74.3526,-12.1474],[-74.4199,-12.094],[-74.4551,-12.0337],[-74.6239,-11.9847],[-74.6591,-11.9961],[-74.7168,-12.0598],[-74.7488,-12.0416],[-74.8375,-12.0712],[-74.9304,-12.0234],[-75.0468,-12.012],[-75.0746,-12.0598],[-75.0479,-12.1702],[-75.0714,-12.2351],[-75.1397,-12.342],[-75.2156,-12.3944],[-75.2156,-12.4638],[-75.2786,-12.4683],[-75.3619,-12.54],[-75.4174,-12.6288],[-75.4911,-12.6481],[-75.5392,-12.6219],[-75.5798,-12.6413],[-75.5723,-12.5639],[-75.536,-12.5172],[-75.5574,-12.4569],[-75.5638,-12.3363],[-75.6642,-12.1941],[-75.6375,-12.1145],[-75.6941,-12.0428],[-75.7656,-12.0598],[-75.8244,-12.0155],[-75.9258,-11.9847],[-76.0145,-11.9847],[-76.0529,-11.9483],[-76.0508,-11.8926],[-76.1373,-11.7811],[-76.2025,-11.7276],[-76.2046,-11.6593],[-76.1875,-11.5933],[-76.2238,-11.5626],[-76.2868,-11.591],[-76.3712,-11.5057],[-76.3798,-11.4443],[-76.4321,-11.3453],[-76.478,-11.2941],[-76.4919,-11.1894],[-76.5186,-11.1166],[-76.4908,-11.0893],[-76.3969,-11.0756],[-76.3178,-11.0915],[-76.3082,-11.1325],[-76.2633,-11.1496],[-76.2409,-11.0608],[-76.2794,-10.9231],[-76.2601,-10.9209],[-76.2484,-10.9334],[-76.2484,-10.9391],[-76.2366,-10.9584],[-76.1768,-11.0437],[-76.1149,-11.1097],[-76.0294,-11.087],[-76.0124,-11.046],[-76.0711,-10.9755],[-76.1234,-10.963],[-76.0914,-10.9061],[-76.0444,-10.8799],[-75.9931,-10.8207],[-75.9226,-10.8833],[-75.8586,-10.8674],[-75.8383,-10.8867],[-75.7859,-10.8241],[-75.7325,-10.8094],[-75.693,-10.8344],[-75.5894,-10.8105],[-75.5734,-10.7468],[-75.4901,-10.757],[-75.4591,-10.7855],[-75.4805,-10.8503],[-75.4655,-10.9015],[-75.4068,-10.856],[-75.317,-10.864],[-75.2626,-10.8253],[-75.2444,-10.7673],[-75.191,-10.7161],[-75.1195,-10.7297],[-75.0746,-10.666],[-75.0169,-10.6774],[-74.9795,-10.7468],[-74.956,-10.7331],[-74.893,-10.7695],[-74.8311,-10.7809],[-74.7916,-10.831],[-74.7606,-10.8253],[-74.7083,-10.8583],[-74.6495,-10.8674],[-74.6143,-10.9049],[-74.5726,-10.9129]]]}},{"type":"Feature","properties":{"NOMBDEP":"LA LIBERTAD"},"geometry":{"type":"Polygon","coordinates":[[[-78.6451,-8.9695],[-78.6515,-8.9149],[-78.7615,-8.7738],[-78.737,-8.7123],[-78.7434,-8.6338],[-78.7776,-8.569],[-78.9346,-8.4358],[-78.8961,-8.3789],[-78.9581,-8.2936],[-78.9858,-8.2128],[-79.1151,-8.0968],[-79.1193,-8.0729],[-79.3073,-7.9261],[-79.3757,-7.8419],[-79.3928,-7.7873],[-79.4654,-7.7122],[-79.4355,-7.6928],[-79.4494,-7.6473],[-79.5412,-7.521],[-79.5882,-7.4141],[-79.5701,-7.3902],[-79.6096,-7.2661],[-79.6908,-7.1774],[-79.4964,-6.9714],[-79.4547,-6.9464],[-79.4003,-6.9566],[-79.3223,-7.0261],[-79.3052,-7.1467],[-79.2667,-7.1922],[-79.2828,-7.2752],[-79.3468,-7.3367],[-79.2934,-7.3469],[-79.2561,-7.3822],[-79.1877,-7.3958],[-79.1525,-7.4402],[-79.0659,-7.4732],[-79.0414,-7.5995],[-78.9923,-7.661],[-78.9613,-7.6576],[-78.9442,-7.5984],[-78.8961,-7.5369],[-78.8865,-7.4846],[-78.8417,-7.4379],[-78.7605,-7.4015],[-78.6622,-7.4129],[-78.6302,-7.4459],[-78.6494,-7.529],[-78.6248,-7.5483],[-78.4913,-7.5551],[-78.4155,-7.4846],[-78.36,-7.5005],[-78.3568,-7.5745],[-78.3824,-7.6302],[-78.3301,-7.6997],[-78.3023,-7.6962],[-78.2724,-7.7531],[-78.2243,-7.7588],[-78.1164,-7.6541],[-78.0812,-7.6962],[-77.999,-7.6792],[-77.8708,-7.5859],[-77.8441,-7.5142],[-77.7415,-7.4664],[-77.7715,-7.4186],[-77.8131,-7.3924],[-77.8313,-7.3105],[-77.8804,-7.2218],[-77.8975,-7.1671],[-78.0,-6.9703],[-77.9274,-6.9862],[-77.8804,-6.9623],[-77.8462,-6.976],[-77.7586,-6.9646],[-77.7138,-7.108],[-77.6433,-7.1489],[-77.6059,-7.2195],[-77.6465,-7.2411],[-77.6283,-7.3196],[-77.6358,-7.3572],[-77.6102,-7.4345],[-77.5269,-7.5051],[-77.5365,-7.5825],[-77.4841,-7.6997],[-77.5279,-7.7577],[-77.4799,-7.8032],[-77.4425,-7.8134],[-77.4072,-7.9022],[-77.3773,-7.909],[-77.4072,-7.9921],[-77.3859,-8.0558],[-77.2919,-8.0603],[-77.2385,-8.0137],[-77.1509,-8.0319],[-77.1178,-8.0251],[-77.0195,-8.0524],[-76.9864,-8.1115],[-76.9074,-8.1707],[-76.9255,-8.2185],[-76.901,-8.2834],[-76.9138,-8.3266],[-76.9768,-8.396],[-77.0858,-8.4062],[-77.1338,-8.4404],[-77.2043,-8.4859],[-77.2641,-8.4677],[-77.3175,-8.5303],[-77.4008,-8.4825],[-77.4393,-8.4199],[-77.4585,-8.3357],[-77.5568,-8.1935],[-77.6059,-8.1548],[-77.6369,-8.1059],[-77.6476,-8.0501],[-77.7191,-8.074],[-77.811,-8.0672],[-77.8975,-8.0763],[-77.9327,-8.1969],[-78.0182,-8.2242],[-78.1164,-8.3107],[-78.1378,-8.3687],[-78.1399,-8.4279],[-78.1741,-8.5041],[-78.2168,-8.5564],[-78.1933,-8.5997],[-78.2457,-8.6588],[-78.3546,-8.6736],[-78.4486,-8.7374],[-78.518,-8.7533],[-78.565,-8.7931],[-78.5885,-8.8591],[-78.5917,-8.9456],[-78.6451,-8.9695]]]}},{"type":"Feature","properties":{"NOMBDEP":"LAMBAYEQUE"},"geometry":{"type":"Polygon","coordinates":[[[-80.6275,-6.3718],[-80.3765,-6.0066],[-80.3273,-5.9474],[-80.1992,-5.8928],[-80.1308,-5.8882],[-79.9952,-5.7517],[-79.9695,-5.5821],[-79.946,-5.515],[-79.9033,-5.4911],[-79.8542,-5.5321],[-79.8649,-5.5639],[-79.8328,-5.6459],[-79.7869,-5.647],[-79.7175,-5.7392],[-79.7378,-5.8382],[-79.6822,-5.8461],[-79.631,-5.829],[-79.6267,-5.8871],[-79.6,-5.9394],[-79.4985,-5.9155],[-79.4184,-5.9701],[-79.2646,-6.002],[-79.224,-6.0555],[-79.2721,-6.1465],[-79.2518,-6.2262],[-79.3223,-6.2626],[-79.3533,-6.3047],[-79.4227,-6.3104],[-79.4537,-6.3968],[-79.4227,-6.4514],[-79.4312,-6.4799],[-79.4035,-6.5402],[-79.3671,-6.5493],[-79.2966,-6.6756],[-79.2294,-6.671],[-79.2133,-6.6961],[-79.1418,-6.7018],[-79.1204,-6.7769],[-79.2625,-6.8588],[-79.3105,-6.9009],[-79.2966,-6.9999],[-79.3223,-7.0261],[-79.4003,-6.9566],[-79.4547,-6.9464],[-79.4964,-6.9714],[-79.6908,-7.1774],[-79.6833,-7.125],[-79.7399,-7.0579],[-79.9321,-6.8736],[-79.9396,-6.8269],[-79.9855,-6.7473],[-80.0753,-6.6756],[-80.1778,-6.6062],[-80.2889,-6.5436],[-80.6275,-6.3718]]]}},{"type":"Feature","properties":{"NOMBDEP":"LIMA"},"geometry":{"type":"Polygon","coordinates":[[[-76.9063,-10.2746],[-76.8561,-10.377],[-76.8081,-10.3929],[-76.7696,-10.4646],[-76.7248,-10.4862],[-76.7013,-10.5932],[-76.6553,-10.6466],[-76.6596,-10.6887],[-76.634,-10.7843],[-76.5806,-10.8674],[-76.5645,-10.9664],[-76.5806,-11.0108],[-76.5314,-11.0358],[-76.4908,-11.0893],[-76.5186,-11.1166],[-76.4919,-11.1894],[-76.478,-11.2941],[-76.4321,-11.3453],[-76.3798,-11.4443],[-76.3712,-11.5057],[-76.2868,-11.591],[-76.2238,-11.5626],[-76.1875,-11.5933],[-76.2046,-11.6593],[-76.2025,-11.7276],[-76.1373,-11.7811],[-76.0508,-11.8926],[-76.0529,-11.9483],[-76.0145,-11.9847],[-75.9258,-11.9847],[-75.8244,-12.0155],[-75.7656,-12.0598],[-75.6941,-12.0428],[-75.6375,-12.1145],[-75.6642,-12.1941],[-75.5638,-12.3363],[-75.5574,-12.4569],[-75.536,-12.5172],[-75.5723,-12.5639],[-75.5798,-12.6413],[-75.552,-12.6811],[-75.5766,-12.7152],[-75.5072,-12.7767],[-75.5307,-12.8222],[-75.6129,-12.8666],[-75.6364,-12.9166],[-75.614,-12.9644],[-75.6706,-13.0224],[-75.725,-13.0384],[-75.7624,-13.019],[-75.8019,-13.06],[-75.9376,-12.9917],[-76.0124,-13.085],[-76.1555,-13.1943],[-76.2078,-13.3058],[-76.2452,-13.324],[-76.4342,-13.0907],[-76.4898,-13.0315],[-76.5133,-12.9519],[-76.5058,-12.9257],[-76.5304,-12.8393],[-76.6361,-12.7437],[-76.6724,-12.6276],[-76.7472,-12.5389],[-76.7995,-12.5093],[-76.775,-12.4376],[-76.7771,-12.3944],[-76.8358,-12.317],[-76.9352,-12.2499],[-77.0377,-12.2043],[-77.0313,-12.1338],[-77.1114,-12.0792],[-77.0826,-12.0359],[-77.1178,-11.9574],[-77.09,-11.9017],[-77.1263,-11.8209],[-77.1872,-11.8289],[-77.168,-11.739],[-77.2161,-11.6388],[-77.2801,-11.5876],[-77.3047,-11.5125],[-77.372,-11.4522],[-77.498,-11.3771],[-77.6433,-11.3043],[-77.6412,-11.2144],[-77.592,-11.1826],[-77.6337,-11.054],[-77.6614,-11.013],[-77.6582,-10.947],[-77.7501,-10.8173],[-77.7437,-10.7946],[-77.811,-10.7001],[-77.8868,-10.6114],[-77.8334,-10.567],[-77.7715,-10.5715],[-77.7725,-10.5124],[-77.796,-10.4828],[-77.7597,-10.4305],[-77.7533,-10.3224],[-77.6924,-10.3212],[-77.5974,-10.3804],[-77.6839,-10.4316],[-77.7373,-10.5636],[-77.6444,-10.5272],[-77.6412,-10.5966],[-77.5771,-10.5841],[-77.5867,-10.6466],[-77.5771,-10.7286],[-77.4948,-10.7456],[-77.4158,-10.7297],[-77.3955,-10.6614],[-77.3111,-10.5681],[-77.2524,-10.5454],[-77.1915,-10.5522],[-77.1744,-10.4646],[-77.1114,-10.4031],[-77.0719,-10.3383],[-77.0249,-10.3281],[-77.0067,-10.2837],[-76.9651,-10.3053],[-76.9063,-10.2746]]]}},{"type":"Feature","properties":{"NOMBDEP":"LORETO"},"geometry":{"type":"Polygon","coordinates":[[[-73.983,-7.5347],[-74.0343,-7.4846],[-74.0396,-7.4482],[-74.1379,-7.3958],[-74.1806,-7.3583],[-74.2586,-7.3435],[-74.3163,-7.3515],[-74.4626,-7.2991],[-74.5021,-7.2661],[-74.5352,-7.2946],[-74.579,-7.4095],[-74.6164,-7.4345],[-74.6431,-7.5005],[-74.6431,-7.562],[-74.5705,-7.6689],[-74.5844,-7.6985],[-74.5577,-7.7486],[-74.516,-7.777],[-74.5694,-7.8157],[-74.6281,-7.9397],[-74.7275,-7.9807],[-74.7713,-8.0365],[-74.8962,-8.0808],[-74.9827,-7.9693],[-75.0329,-7.95],[-75.143,-7.9784],[-75.1846,-8.0171],[-75.2145,-8.1275],[-75.2444,-8.1559],[-75.2882,-8.1252],[-75.3758,-8.1389],[-75.4303,-8.1662],[-75.4719,-8.2526],[-75.5029,-8.289],[-75.504,-8.3494],[-75.4356,-8.3926],[-75.4409,-8.437],[-75.5467,-8.4666],[-75.599,-8.4119],[-75.6481,-8.4097],[-75.7069,-8.4392],[-75.7165,-8.487],[-75.7784,-8.4939],[-75.7795,-8.5473],[-75.8329,-8.652],[-75.8917,-8.6611],[-75.9461,-8.7157],[-75.9792,-8.6361],[-75.9664,-8.5917],[-75.9654,-8.4518],[-75.9461,-8.4006],[-75.9846,-8.322],[-75.9344,-8.3118],[-75.913,-8.2549],[-75.9408,-8.1866],[-75.9493,-8.099],[-75.9173,-8.0717],[-75.8447,-8.0592],[-75.8297,-7.9739],[-75.8596,-7.9215],[-75.9675,-7.9602],[-76.0433,-7.7918],[-76.1021,-7.7224],[-76.0914,-7.5608],[-76.1662,-7.4948],[-76.2142,-7.405],[-76.1961,-7.3333],[-76.2132,-7.3105],[-76.1662,-7.2673],[-76.1437,-7.2036],[-76.0604,-7.1615],[-76.0102,-7.0784],[-76.0113,-6.9965],[-76.0519,-6.9441],[-76.0102,-6.8941],[-76.0508,-6.811],[-75.9632,-6.7882],[-75.8436,-6.7973],[-75.7688,-6.8542],[-75.6973,-6.869],[-75.6684,-6.8269],[-75.6332,-6.8429],[-75.5114,-6.786],[-75.5008,-6.7666],[-75.5008,-6.6403],[-75.5093,-6.4924],[-75.5499,-6.3479],[-75.4901,-6.2671],[-75.4869,-6.2034],[-75.5253,-6.1647],[-75.5328,-6.0953],[-75.5712,-6.0043],[-75.614,-6.0236],[-75.6289,-6.0816],[-75.6802,-6.0953],[-75.7154,-6.1385],[-75.8148,-6.101],[-75.834,-6.1385],[-75.9312,-6.1363],[-75.9654,-6.0953],[-76.0316,-6.0999],[-76.1277,-6.1772],[-76.2238,-6.1658],[-76.273,-6.1044],[-76.3178,-6.0862],[-76.3723,-5.9736],[-76.4118,-5.9508],[-76.5485,-6.0225],[-76.6404,-6.0031],[-76.7472,-6.0031],[-76.7472,-5.9542],[-76.8177,-5.862],[-76.8358,-5.746],[-76.8882,-5.7483],[-76.9619,-5.7062],[-76.996,-5.6675],[-77.042,-5.6743],[-77.2321,-5.5958],[-77.3378,-5.6038],[-77.3699,-5.5696],[-77.4083,-5.589],[-77.4617,-5.5844],[-77.5173,-5.4672],[-77.5578,-5.4251],[-77.5813,-5.4615],[-77.67,-5.4092],[-77.6956,-5.4115],[-77.6817,-5.3386],[-77.6935,-5.2681],[-77.7394,-5.2123],[-77.6956,-5.1634],[-77.7747,-5.0974],[-77.8227,-5.0815],[-77.8249,-5.0314],[-77.7597,-4.9518],[-77.7597,-4.9097],[-77.7939,-4.8505],[-77.795,-4.7629],[-77.7715,-4.7174],[-77.6721,-4.6298],[-77.655,-4.5183],[-77.5856,-4.475],[-77.5653,-4.3726],[-77.5856,-4.2509],[-77.5493,-4.1098],[-77.5386,-4.029],[-77.5418,-3.9437],[-77.5696,-3.8731],[-77.6518,-3.7787],[-77.6155,-3.7081],[-77.6166,-3.6342],[-77.7608,-3.4601],[-77.7768,-3.4089],[-77.7789,-3.187],[-77.8088,-2.9856],[-77.1573,-2.7683],[-76.6318,-2.5896],[-76.0455,-2.1277],[-75.5809,-1.5462],[-75.5392,-1.4837],[-75.4036,-1.0001],[-75.3865,-0.9295],[-75.3224,-0.975],[-75.2166,-0.9705],[-75.2209,-0.8658],[-75.2722,-0.735],[-75.2359,-0.6473],[-75.2273,-0.5518],[-75.2775,-0.4983],[-75.3128,-0.4937],[-75.3875,-0.4346],[-75.4623,-0.3185],[-75.4826,-0.2366],[-75.5307,-0.1808],[-75.6108,-0.1911],[-75.6108,-0.1137],[-75.5638,-0.1308],[-75.5061,-0.1183],[-75.4046,-0.1706],[-75.3064,-0.1558],[-75.2594,-0.1285],[-75.1835,-0.0386],[-75.0778,-0.0841],[-75.0169,-0.1456],[-74.9731,-0.1535],[-74.9325,-0.2172],[-74.8482,-0.2332],[-74.814,-0.1922],[-74.7627,-0.2252],[-74.7307,-0.2935],[-74.7307,-0.339],[-74.6687,-0.3743],[-74.5747,-0.3947],[-74.5299,-0.4653],[-74.4209,-0.504],[-74.3665,-0.6109],[-74.3729,-0.653],[-74.2682,-0.8465],[-74.2778,-0.8999],[-74.2671,-0.9819],[-74.2233,-1.0069],[-74.1689,-1.0058],[-74.0941,-1.0479],[-74.0461,-1.0445],[-74.0151,-1.0866],[-73.9478,-1.1321],[-73.9136,-1.1195],[-73.857,-1.2322],[-73.6808,-1.2379],[-73.6199,-1.2618],[-73.6135,-1.3153],[-73.5312,-1.4347],[-73.5291,-1.4643],[-73.4789,-1.5223],[-73.5013,-1.6191],[-73.5366,-1.6885],[-73.5003,-1.7317],[-73.4597,-1.7363],[-73.4255,-1.7897],[-73.3839,-1.7749],[-73.307,-1.7829],[-73.2034,-1.7636],[-73.1521,-1.858],[-73.1126,-1.8728],[-73.119,-2.0162],[-73.0944,-2.0423],[-73.1318,-2.1834],[-73.1692,-2.2244],[-73.119,-2.2847],[-73.0688,-2.3154],[-73.0666,-2.3552],[-72.963,-2.3427],[-72.9556,-2.3916],[-72.8893,-2.4337],[-72.852,-2.436],[-72.7686,-2.3871],[-72.6917,-2.4064],[-72.5956,-2.3666],[-72.5187,-2.4258],[-72.4664,-2.4212],[-72.3799,-2.4554],[-72.3681,-2.4895],[-72.2912,-2.469],[-72.2581,-2.4326],[-72.2058,-2.4463],[-72.1481,-2.4155],[-72.0488,-2.3348],[-72.0103,-2.3689],[-71.9623,-2.3575],[-71.9259,-2.3074],[-71.8843,-2.312],[-71.833,-2.1903],[-71.7988,-2.2039],[-71.7401,-2.1425],[-71.7081,-2.2278],[-71.6643,-2.2028],[-71.6045,-2.2312],[-71.4635,-2.271],[-71.3706,-2.3894],[-71.3172,-2.3746],[-71.3022,-2.3439],[-71.2306,-2.3382],[-71.1879,-2.3791],[-71.1334,-2.2847],[-71.0533,-2.271],[-70.9999,-2.2073],[-70.9284,-2.254],[-70.8792,-2.221],[-70.8355,-2.2904],[-70.7778,-2.2927],[-70.7511,-2.3279],[-70.6656,-2.3541],[-70.6272,-2.3973],[-70.6379,-2.4656],[-70.5994,-2.485],[-70.4755,-2.4554],[-70.4371,-2.5214],[-70.358,-2.4895],[-70.3345,-2.5783],[-70.2737,-2.5475],[-70.2299,-2.5748],[-70.2192,-2.6431],[-70.1028,-2.6579],[-70.0664,-2.6841],[-70.06,-2.7592],[-70.1401,-2.8912],[-70.5022,-3.4635],[-70.7116,-3.79],[-70.6186,-3.8401],[-70.5738,-3.8299],[-70.4969,-3.8754],[-70.3463,-3.8003],[-70.2758,-3.8378],[-70.2459,-3.8902],[-70.1978,-3.9095],[-70.1743,-3.9698],[-70.1049,-4.0574],[-70.06,-4.0859],[-70.0344,-4.1348],[-69.9554,-4.2076],[-69.95,-4.2793],[-69.9746,-4.3328],[-70.0184,-4.3533],[-70.0707,-4.3226],[-70.0793,-4.285],[-70.1583,-4.277],[-70.154,-4.3191],[-70.1807,-4.3556],[-70.2459,-4.285],[-70.279,-4.2293],[-70.2939,-4.1598],[-70.4328,-4.1314],[-70.4659,-4.1758],[-70.5257,-4.136],[-70.5588,-4.1712],[-70.6165,-4.194],[-70.6443,-4.1268],[-70.6945,-4.1872],[-70.7468,-4.161],[-70.8162,-4.1974],[-70.829,-4.2486],[-70.8643,-4.2566],[-70.876,-4.3214],[-70.9487,-4.376],[-71.0747,-4.3942],[-71.1057,-4.376],[-71.1858,-4.3977],[-71.2125,-4.3772],[-71.2616,-4.4284],[-71.3406,-4.4398],[-71.3876,-4.4261],[-71.4186,-4.4648],[-71.4795,-4.4352],[-71.5361,-4.4625],[-71.5692,-4.508],[-71.6162,-4.5285],[-71.6483,-4.5023],[-71.707,-4.5103],[-71.7401,-4.4819],[-71.8651,-4.5262],[-71.9185,-4.5615],[-71.9826,-4.6275],[-72.037,-4.6366],[-72.1032,-4.706],[-72.1855,-4.7424],[-72.2688,-4.797],[-72.3254,-4.8016],[-72.3788,-4.8346],[-72.4151,-4.9006],[-72.5209,-4.9324],[-72.6052,-4.9996],[-72.6063,-5.028],[-72.6544,-5.0633],[-72.7291,-5.0553],[-72.7612,-5.0929],[-72.8883,-5.1657],[-72.8637,-5.2351],[-72.8669,-5.2897],[-72.8957,-5.325],[-72.9246,-5.4081],[-72.9577,-5.4649],[-72.9492,-5.548],[-72.9737,-5.614],[-72.9588,-5.6561],[-73.057,-5.7961],[-73.1521,-5.8677],[-73.1852,-5.9497],[-73.1863,-6.0043],[-73.2226,-6.0225],[-73.2503,-6.1329],[-73.1564,-6.3263],[-73.1115,-6.4469],[-73.1489,-6.514],[-73.1991,-6.5698],[-73.3294,-6.5982],[-73.3924,-6.6415],[-73.5206,-6.6756],[-73.5612,-6.7211],[-73.6028,-6.7325],[-73.7107,-6.8406],[-73.7609,-6.9396],[-73.7619,-7.0625],[-73.7983,-7.1125],[-73.7171,-7.2274],[-73.6947,-7.2991],[-73.7224,-7.3412],[-73.8186,-7.3378],[-73.8613,-7.3879],[-73.9232,-7.3617],[-73.9403,-7.3936],[-73.9115,-7.4755],[-73.9424,-7.5335],[-73.983,-7.5347]]]}},{"type":"Feature","properties":{"NOMBDEP":"MADRE DE DIOS"},"geometry":{"type":"Polygon","coordinates":[[[-70.3879,-13.192],[-70.4638,-13.1601],[-70.5503,-13.1533],[-70.5877,-13.1032],[-70.6592,-13.0884],[-70.7586,-13.1078],[-70.8429,-13.0668],[-70.9209,-13.1112],[-70.9743,-13.1681],[-71.0405,-13.2682],[-71.1217,-13.2341],[-71.1687,-13.0941],[-71.173,-12.9838],[-71.2392,-12.9724],[-71.3011,-12.9405],[-71.3545,-12.8836],[-71.4154,-12.8939],[-71.4507,-12.8245],[-71.5521,-12.7095],[-71.6002,-12.7004],[-71.6952,-12.7391],[-71.7465,-12.796],[-71.8106,-12.7448],[-71.8811,-12.73],[-71.9783,-12.6834],[-71.9559,-12.6549],[-71.9815,-12.581],[-72.0317,-12.5252],[-72.0712,-12.5116],[-72.0616,-12.441],[-71.9761,-12.3989],[-71.9729,-12.3204],[-72.0338,-12.2646],[-72.1054,-12.2385],[-72.0872,-12.1429],[-72.0947,-12.0849],[-72.1737,-12.0598],[-72.2688,-12.0541],[-72.2592,-12.0064],[-72.2848,-11.9768],[-72.3372,-11.9677],[-72.3478,-11.8914],[-72.3318,-11.855],[-72.3916,-11.8266],[-72.3703,-11.7845],[-72.429,-11.7094],[-72.3158,-11.5956],[-72.2923,-11.4329],[-72.2474,-11.3851],[-72.2389,-11.3453],[-72.1983,-11.2622],[-72.2004,-11.2053],[-72.1214,-11.1075],[-72.1844,-11.0654],[-72.1823,-11.0108],[-72.1299,-10.9903],[-72.052,-11.0108],[-72.0157,-10.9891],[-71.8352,-11.0005],[-71.7198,-10.9971],[-71.5318,-10.9527],[-71.3577,-10.9516],[-71.2734,-10.8469],[-71.2573,-10.7843],[-71.221,-10.7616],[-71.2296,-10.6887],[-71.1965,-10.5795],[-71.127,-10.5044],[-71.0245,-10.4782],[-70.9668,-10.3815],[-70.9658,-10.3394],[-70.923,-10.3281],[-70.8792,-10.2848],[-70.8173,-10.2564],[-70.7052,-10.1585],[-70.7084,-10.1358],[-70.6507,-10.08],[-70.6731,-10.0356],[-70.6678,-9.9719],[-70.6144,-9.9173],[-70.6133,-10.4999],[-70.6133,-11.0005],[-70.5279,-10.9345],[-70.4552,-10.996],[-70.4243,-11.0381],[-70.3078,-11.0711],[-70.2448,-11.0494],[-70.1989,-11.054],[-70.1412,-11.0301],[-70.0942,-10.9903],[-70.028,-10.9778],[-69.9543,-10.9288],[-69.9009,-10.9209],[-69.7888,-10.93],[-69.7396,-10.9652],[-69.635,-10.9573],[-69.5965,-10.9413],[-69.5634,-10.9664],[-69.228,-11.5],[-69.1031,-11.6809],[-68.9685,-11.9165],[-68.6545,-12.499],[-68.6919,-12.5832],[-68.7324,-12.6105],[-68.7186,-12.6618],[-68.7421,-12.7255],[-68.835,-12.8131],[-68.836,-12.8586],[-68.8713,-12.8859],[-68.8724,-13.0042],[-69.3103,-13.1954],[-69.6467,-13.341],[-69.9746,-13.2455],[-70.0323,-13.2238],[-70.4029,-13.1146],[-70.3879,-13.192]]]}},{"type":"Feature","properties":{"NOMBDEP":"MOQUEGUA"},"geometry":{"type":"Polygon","coordinates":[[[-71.1399,-17.8218],[-71.2061,-17.7684],[-71.3727,-17.6819],[-71.3406,-17.6375],[-71.3577,-17.5886],[-71.3727,-17.4759],[-71.3951,-17.3895],[-71.4912,-17.2848],[-71.441,-17.2518],[-71.3022,-17.0936],[-71.3396,-17.0219],[-71.3844,-17.0208],[-71.441,-16.8649],[-71.4443,-16.8046],[-71.425,-16.7409],[-71.3695,-16.7193],[-71.3278,-16.7523],[-71.2894,-16.7261],[-71.2787,-16.6157],[-71.2445,-16.5497],[-71.2456,-16.4667],[-71.1399,-16.4746],[-71.0779,-16.4587],[-70.9925,-16.4963],[-70.9529,-16.461],[-70.9754,-16.4121],[-70.9861,-16.3097],[-70.9572,-16.3085],[-70.8536,-16.2414],[-70.875,-16.0946],[-70.8568,-16.0559],[-70.813,-16.0536],[-70.8205,-15.9785],[-70.7682,-16.0172],[-70.7052,-16.032],[-70.6432,-15.9899],[-70.5599,-15.9888],[-70.5257,-16.0263],[-70.4093,-16.0764],[-70.4018,-16.1492],[-70.3591,-16.2084],[-70.3388,-16.3233],[-70.3826,-16.3847],[-70.3335,-16.4109],[-70.3014,-16.4792],[-70.2288,-16.5065],[-70.1754,-16.5611],[-70.169,-16.61],[-70.0878,-16.6556],[-70.0472,-16.6282],[-70.0013,-16.6567],[-69.996,-16.7295],[-70.0504,-16.7636],[-70.091,-16.8126],[-70.0942,-16.8911],[-70.1466,-16.9389],[-70.247,-16.9525],[-70.2587,-16.9025],[-70.2053,-16.808],[-70.3078,-16.7728],[-70.4413,-16.841],[-70.4648,-16.9457],[-70.4499,-17.0811],[-70.4915,-17.0913],[-70.5279,-17.1687],[-70.6101,-17.2142],[-70.6838,-17.2245],[-70.7158,-17.2734],[-70.7521,-17.3804],[-70.7351,-17.4008],[-70.8792,-17.5556],[-70.9124,-17.6876],[-70.9935,-17.6796],[-71.1035,-17.7558],[-71.1399,-17.8218]]]}},{"type":"Feature","properties":{"NOMBDEP":"PASCO"},"geometry":{"type":"Polygon","coordinates":[[[-76.2794,-10.9231],[-76.2409,-11.0608],[-76.2633,-11.1496],[-76.3082,-11.1325],[-76.3178,-11.0915],[-76.3969,-11.0756],[-76.4908,-11.0893],[-76.5314,-11.0358],[-76.5806,-11.0108],[-76.5645,-10.9664],[-76.5806,-10.8674],[-76.634,-10.7843],[-76.6596,-10.6887],[-76.6553,-10.6466],[-76.7013,-10.5932],[-76.7248,-10.4862],[-76.697,-10.443],[-76.6468,-10.4157],[-76.4908,-10.3793],[-76.4727,-10.3383],[-76.336,-10.286],[-76.3093,-10.4054],[-76.2708,-10.3713],[-76.2228,-10.3747],[-76.1309,-10.4293],[-76.0786,-10.4339],[-76.0572,-10.4646],[-75.976,-10.4794],[-75.9248,-10.4066],[-75.9248,-10.3565],[-75.8564,-10.3019],[-75.8404,-10.2586],[-75.7859,-10.2518],[-75.7037,-10.2063],[-75.7026,-10.1335],[-75.6748,-10.047],[-75.6086,-10.0231],[-75.5905,-9.9526],[-75.5488,-9.9833],[-75.4762,-9.9742],[-75.3961,-9.9139],[-75.3694,-9.8706],[-75.2882,-9.8706],[-75.2754,-9.8502],[-75.3032,-9.7842],[-75.2412,-9.7853],[-75.16,-9.8399],[-75.1088,-9.8467],[-75.0596,-9.8194],[-74.9998,-9.8388],[-74.9432,-9.7614],[-74.8973,-9.7375],[-74.8492,-9.7478],[-74.8044,-9.7295],[-74.8065,-9.6863],[-74.735,-9.5725],[-74.751,-9.5247],[-74.7275,-9.4701],[-74.6773,-9.428],[-74.5844,-9.4952],[-74.5758,-9.5703],[-74.4968,-9.593],[-74.485,-9.7022],[-74.4476,-9.7796],[-74.4498,-9.8706],[-74.4145,-9.9025],[-74.4241,-9.989],[-74.4006,-10.0709],[-74.3665,-10.113],[-74.328,-10.1096],[-74.3035,-10.1631],[-74.2319,-10.1847],[-74.2244,-10.2791],[-74.2768,-10.3736],[-74.2554,-10.4521],[-74.2191,-10.4521],[-74.1817,-10.5044],[-74.1326,-10.6045],[-74.1646,-10.6387],[-74.2298,-10.6353],[-74.281,-10.6751],[-74.3173,-10.7263],[-74.3739,-10.7582],[-74.3857,-10.8116],[-74.485,-10.8367],[-74.5096,-10.8799],[-74.5726,-10.9129],[-74.6143,-10.9049],[-74.6495,-10.8674],[-74.7083,-10.8583],[-74.7606,-10.8253],[-74.7916,-10.831],[-74.8311,-10.7809],[-74.893,-10.7695],[-74.956,-10.7331],[-74.9795,-10.7468],[-75.0169,-10.6774],[-75.0746,-10.666],[-75.1195,-10.7297],[-75.191,-10.7161],[-75.2444,-10.7673],[-75.2626,-10.8253],[-75.317,-10.864],[-75.4068,-10.856],[-75.4655,-10.9015],[-75.4805,-10.8503],[-75.4591,-10.7855],[-75.4901,-10.757],[-75.5734,-10.7468],[-75.5894,-10.8105],[-75.693,-10.8344],[-75.7325,-10.8094],[-75.7859,-10.8241],[-75.8383,-10.8867],[-75.8586,-10.8674],[-75.9226,-10.8833],[-75.9931,-10.8207],[-76.0444,-10.8799],[-76.0914,-10.9061],[-76.1234,-10.963],[-76.1907,-10.9607],[-76.2099,-10.9186],[-76.2238,-10.9152],[-76.2495,-10.9243],[-76.2591,-10.9197],[-76.2655,-10.9197],[-76.2794,-10.9231]]]}},{"type":"Feature","properties":{"NOMBDEP":"PIURA"},"geometry":{"type":"Polygon","coordinates":[[[-79.2101,-4.9654],[-79.2454,-5.0018],[-79.2945,-5.1099],[-79.3789,-5.1907],[-79.349,-5.2328],[-79.3586,-5.2886],[-79.3276,-5.3159],[-79.2977,-5.4581],[-79.2721,-5.5184],[-79.3981,-5.5366],[-79.3757,-5.606],[-79.4003,-5.7494],[-79.3896,-5.7915],[-79.334,-5.8939],[-79.4184,-5.9701],[-79.4985,-5.9155],[-79.6,-5.9394],[-79.6267,-5.8871],[-79.631,-5.829],[-79.6822,-5.8461],[-79.7378,-5.8382],[-79.7175,-5.7392],[-79.7869,-5.647],[-79.8328,-5.6459],[-79.8649,-5.5639],[-79.8542,-5.5321],[-79.9033,-5.4911],[-79.946,-5.515],[-79.9695,-5.5821],[-79.9952,-5.7517],[-80.1308,-5.8882],[-80.1992,-5.8928],[-80.3273,-5.9474],[-80.3765,-6.0066],[-80.6275,-6.3718],[-80.7983,-6.2887],[-80.9126,-6.1909],[-81.0921,-6.0816],[-81.1497,-5.9815],[-81.1497,-5.8894],[-81.0974,-5.8382],[-81.0686,-5.7858],[-81.0216,-5.8302],[-80.9436,-5.8461],[-80.8913,-5.8097],[-80.8614,-5.7494],[-80.8528,-5.6356],[-80.8977,-5.5116],[-80.9586,-5.4228],[-81.0525,-5.3307],[-81.1081,-5.3147],[-81.138,-5.2635],[-81.1946,-5.2123],[-81.1326,-5.0701],[-81.091,-5.0815],[-81.06,-5.0394],[-81.0867,-4.9677],[-81.1764,-4.8551],[-81.3281,-4.6821],[-81.3099,-4.6616],[-81.2822,-4.5251],[-81.3035,-4.483],[-81.2672,-4.4341],[-81.2491,-4.3544],[-81.2608,-4.3112],[-81.2373,-4.2509],[-81.169,-4.2099],[-81.1006,-4.1291],[-81.0419,-4.087],[-80.9714,-4.1268],[-80.9543,-4.1735],[-80.8827,-4.1928],[-80.8037,-4.1758],[-80.7001,-4.1883],[-80.6232,-4.2315],[-80.5612,-4.1746],[-80.5239,-4.1075],[-80.4875,-4.0836],[-80.4491,-4.1257],[-80.4341,-4.1963],[-80.3711,-4.1974],[-80.3284,-4.2236],[-80.3668,-4.2816],[-80.4267,-4.3362],[-80.4534,-4.3851],[-80.4384,-4.4568],[-80.3893,-4.4864],[-80.2899,-4.4352],[-80.1949,-4.3465],[-80.1789,-4.3032],[-80.1041,-4.2907],[-79.992,-4.3794],[-79.9204,-4.3851],[-79.8713,-4.4124],[-79.8403,-4.4671],[-79.7944,-4.4932],[-79.7089,-4.4716],[-79.6555,-4.4341],[-79.6277,-4.4386],[-79.5637,-4.5137],[-79.4974,-4.5217],[-79.4793,-4.5729],[-79.4878,-4.6264],[-79.3928,-4.8312],[-79.3212,-4.8869],[-79.2635,-4.9688],[-79.2101,-4.9654]]]}},{"type":"Feature","properties":{"NOMBDEP":"PUNO"},"geometry":{"type":"MultiPolygon","coordinates":[[[[-68.9183,-16.4041],[-68.9183,-16.2334],[-68.8147,-16.3199],[-68.8147,-16.3483],[-68.9183,-16.4041]]],[[[-69.6414,-17.2871],[-69.6937,-17.2745],[-69.7321,-17.295],[-69.7888,-17.237],[-69.8518,-17.2438],[-70.0397,-17.1278],[-70.0472,-17.0561],[-70.0996,-17.006],[-70.1466,-16.9389],[-70.0942,-16.8911],[-70.091,-16.8126],[-70.0504,-16.7636],[-69.996,-16.7295],[-70.0013,-16.6567],[-70.0472,-16.6282],[-70.0878,-16.6556],[-70.169,-16.61],[-70.1754,-16.5611],[-70.2288,-16.5065],[-70.3014,-16.4792],[-70.3335,-16.4109],[-70.3826,-16.3847],[-70.3388,-16.3233],[-70.3591,-16.2084],[-70.4018,-16.1492],[-70.4093,-16.0764],[-70.5257,-16.0263],[-70.5599,-15.9888],[-70.6432,-15.9899],[-70.7052,-16.032],[-70.7682,-16.0172],[-70.8205,-15.9785],[-70.8429,-15.9228],[-70.9359,-15.7851],[-70.9006,-15.7123],[-70.9177,-15.644],[-71.0085,-15.5644],[-71.0149,-15.4893],[-70.9935,-15.4551],[-71.0395,-15.4051],[-71.0128,-15.3436],[-70.9519,-15.2902],[-70.985,-15.2492],[-70.9626,-15.2162],[-70.9764,-15.1752],[-71.0042,-14.9716],[-70.985,-14.9465],[-70.9935,-14.8293],[-70.9754,-14.7645],[-71.0128,-14.7394],[-71.0533,-14.7542],[-71.1132,-14.6666],[-71.001,-14.5722],[-70.9967,-14.5062],[-70.9626,-14.4447],[-70.9861,-14.4072],[-70.9626,-14.3617],[-70.9134,-14.3275],[-70.8803,-14.2707],[-70.8995,-14.2297],[-70.8664,-14.1694],[-70.8088,-14.1239],[-70.7959,-14.0727],[-70.8622,-14.026],[-70.8333,-13.9384],[-70.8312,-13.8588],[-70.7682,-13.8144],[-70.7212,-13.8292],[-70.6987,-13.803],[-70.7351,-13.7393],[-70.7148,-13.6619],[-70.6539,-13.6562],[-70.6165,-13.6096],[-70.5417,-13.5743],[-70.5343,-13.5254],[-70.4531,-13.448],[-70.4424,-13.3934],[-70.3997,-13.3718],[-70.3933,-13.3137],[-70.42,-13.2591],[-70.3879,-13.192],[-70.4029,-13.1146],[-70.0323,-13.2238],[-69.9746,-13.2455],[-69.6467,-13.341],[-69.3103,-13.1954],[-68.8724,-13.0042],[-68.8542,-13.0611],[-68.8745,-13.1157],[-68.8457,-13.2455],[-68.9172,-13.4867],[-68.993,-13.6494],[-69.0614,-13.6574],[-69.0657,-13.6881],[-68.977,-13.7586],[-68.9802,-13.7837],[-68.9172,-13.8132],[-68.9514,-13.8792],[-68.9824,-13.894],[-68.9781,-13.9782],[-68.9375,-14.0249],[-68.8959,-14.0408],[-68.8563,-14.1626],[-68.8275,-14.2194],[-68.9621,-14.2206],[-69.0155,-14.315],[-68.9856,-14.3742],[-69.0304,-14.4265],[-69.0838,-14.4516],[-69.1404,-14.513],[-69.1501,-14.5801],[-69.2205,-14.5813],[-69.2302,-14.6564],[-69.2579,-14.6825],[-69.2248,-14.7406],[-69.3017,-14.7656],[-69.3541,-14.802],[-69.3434,-14.8828],[-69.3615,-14.9488],[-69.2996,-15.0501],[-69.2857,-15.0944],[-69.2355,-15.1206],[-69.1319,-15.2344],[-69.2152,-15.3175],[-69.2483,-15.3709],[-69.2537,-15.4688],[-69.29,-15.4369],[-69.3316,-15.5382],[-69.4352,-15.4824],[-69.4769,-15.4267],[-69.5687,-15.355],[-69.5965,-15.3698],[-69.6424,-15.3197],[-69.6446,-15.2833],[-69.699,-15.2333],[-69.7279,-15.2389],[-69.7727,-15.3095],[-69.8165,-15.2879],[-69.8945,-15.2947],[-69.902,-15.3561],[-69.9426,-15.3971],[-69.9223,-15.4551],[-69.8603,-15.5575],[-69.7706,-15.6588],[-69.7503,-15.7294],[-69.7941,-15.7248],[-69.8454,-15.685],[-69.8454,-15.6406],[-69.8934,-15.594],[-69.9639,-15.6998],[-70.0173,-15.6907],[-70.0344,-15.7225],[-70.0237,-15.7874],[-69.9628,-15.8511],[-69.8827,-15.8898],[-69.8219,-15.7851],[-69.7674,-15.8318],[-69.7695,-15.8955],[-69.714,-15.9171],[-69.6713,-15.9569],[-69.5623,-15.9592],[-69.4512,-15.9933],[-69.4235,-16.0468],[-69.5036,-16.1504],[-69.494,-16.2084],[-69.4267,-16.1788],[-69.3583,-16.2505],[-69.2408,-16.271],[-69.1458,-16.2528],[-69.055,-16.197],[-68.977,-16.2573],[-69.0507,-16.2823],[-69.0219,-16.3324],[-69.023,-16.4041],[-69.0838,-16.4621],[-69.0849,-16.4974],[-69.0368,-16.56],[-69.0315,-16.6055],[-68.9963,-16.6567],[-69.0454,-16.6886],[-69.1703,-16.7272],[-69.2195,-16.8365],[-69.3049,-16.9161],[-69.3434,-16.9867],[-69.3946,-17.0242],[-69.3733,-17.0731],[-69.4491,-17.0982],[-69.5121,-17.146],[-69.557,-17.1596],[-69.6414,-17.2871]],[[-69.8881,-15.2071],[-69.9329,-15.1536],[-69.9564,-15.173],[-70.0205,-15.1536],[-70.0451,-15.1104],[-70.1166,-15.1684],[-70.06,-15.1946],[-69.9522,-15.2196],[-69.8881,-15.2071]]]]}},{"type":"Feature","properties":{"NOMBDEP":"SAN MARTIN"},"geometry":{"type":"Polygon","coordinates":[[[-75.9846,-8.322],[-76.0871,-8.3368],[-76.1309,-8.4677],[-76.116,-8.6577],[-76.1662,-8.7567],[-76.2302,-8.7965],[-76.2666,-8.6554],[-76.2783,-8.5769],[-76.3242,-8.5246],[-76.3338,-8.429],[-76.4172,-8.4438],[-76.4439,-8.4893],[-76.4663,-8.5701],[-76.5432,-8.5098],[-76.6244,-8.5121],[-76.697,-8.5325],[-76.8316,-8.5166],[-76.8476,-8.5462],[-76.9159,-8.5701],[-77.0494,-8.5542],[-77.0922,-8.5166],[-77.089,-8.4825],[-77.1338,-8.4404],[-77.0858,-8.4062],[-76.9768,-8.396],[-76.9138,-8.3266],[-76.901,-8.2834],[-76.9255,-8.2185],[-76.9074,-8.1707],[-76.9864,-8.1115],[-77.0195,-8.0524],[-77.1178,-8.0251],[-77.1509,-8.0319],[-77.2385,-8.0137],[-77.2919,-8.0603],[-77.3859,-8.0558],[-77.4072,-7.9921],[-77.3773,-7.909],[-77.4072,-7.9022],[-77.4425,-7.8134],[-77.4799,-7.8032],[-77.5279,-7.7577],[-77.4841,-7.6997],[-77.5365,-7.5825],[-77.5269,-7.5051],[-77.6102,-7.4345],[-77.6358,-7.3572],[-77.6283,-7.3196],[-77.6465,-7.2411],[-77.6059,-7.2195],[-77.6433,-7.1489],[-77.7138,-7.108],[-77.7586,-6.9646],[-77.7234,-6.8929],[-77.7618,-6.8076],[-77.7469,-6.7518],[-77.7458,-6.6654],[-77.6935,-6.679],[-77.6123,-6.6119],[-77.544,-6.6767],[-77.3816,-6.6972],[-77.4361,-6.6051],[-77.3934,-6.6028],[-77.3357,-6.522],[-77.3261,-6.4685],[-77.2727,-6.4071],[-77.2866,-6.3308],[-77.2599,-6.3274],[-77.2214,-6.3809],[-77.1712,-6.3809],[-77.1328,-6.3024],[-77.2,-6.2307],[-77.2225,-6.1465],[-77.2812,-6.142],[-77.3464,-6.1146],[-77.3955,-6.0395],[-77.4339,-6.06],[-77.4788,-6.0009],[-77.5333,-6.0634],[-77.5931,-6.0088],[-77.6689,-5.9804],[-77.6518,-5.9349],[-77.6775,-5.8598],[-77.764,-5.8199],[-77.7736,-5.6857],[-77.7373,-5.6049],[-77.7661,-5.5389],[-77.7683,-5.4376],[-77.7426,-5.4069],[-77.6956,-5.4115],[-77.67,-5.4092],[-77.5813,-5.4615],[-77.5578,-5.4251],[-77.5173,-5.4672],[-77.4617,-5.5844],[-77.4083,-5.589],[-77.3699,-5.5696],[-77.3378,-5.6038],[-77.2321,-5.5958],[-77.042,-5.6743],[-76.996,-5.6675],[-76.9619,-5.7062],[-76.8882,-5.7483],[-76.8358,-5.746],[-76.8177,-5.862],[-76.7472,-5.9542],[-76.7472,-6.0031],[-76.6404,-6.0031],[-76.5485,-6.0225],[-76.4118,-5.9508],[-76.3723,-5.9736],[-76.3178,-6.0862],[-76.273,-6.1044],[-76.2238,-6.1658],[-76.1277,-6.1772],[-76.0316,-6.0999],[-75.9654,-6.0953],[-75.9312,-6.1363],[-75.834,-6.1385],[-75.8148,-6.101],[-75.7154,-6.1385],[-75.6802,-6.0953],[-75.6289,-6.0816],[-75.614,-6.0236],[-75.5712,-6.0043],[-75.5328,-6.0953],[-75.5253,-6.1647],[-75.4869,-6.2034],[-75.4901,-6.2671],[-75.5499,-6.3479],[-75.5093,-6.4924],[-75.5008,-6.6403],[-75.5008,-6.7666],[-75.5114,-6.786],[-75.6332,-6.8429],[-75.6684,-6.8269],[-75.6973,-6.869],[-75.7688,-6.8542],[-75.8436,-6.7973],[-75.9632,-6.7882],[-76.0508,-6.811],[-76.0102,-6.8941],[-76.0519,-6.9441],[-76.0113,-6.9965],[-76.0102,-7.0784],[-76.0604,-7.1615],[-76.1437,-7.2036],[-76.1662,-7.2673],[-76.2132,-7.3105],[-76.1961,-7.3333],[-76.2142,-7.405],[-76.1662,-7.4948],[-76.0914,-7.5608],[-76.1021,-7.7224],[-76.0433,-7.7918],[-75.9675,-7.9602],[-75.8596,-7.9215],[-75.8297,-7.9739],[-75.8447,-8.0592],[-75.9173,-8.0717],[-75.9493,-8.099],[-75.9408,-8.1866],[-75.913,-8.2549],[-75.9344,-8.3118],[-75.9846,-8.322]]]}},{"type":"Feature","properties":{"NOMBDEP":"TACNA"},"geometry":{"type":"Polygon","coordinates":[[[-69.6414,-17.2871],[-69.5751,-17.2927],[-69.4673,-17.3735],[-69.4683,-17.5044],[-69.6659,-17.6603],[-69.7962,-17.6466],[-69.8208,-17.6864],[-69.8005,-17.7627],[-69.7962,-17.8628],[-69.7471,-17.9436],[-69.7514,-17.9857],[-69.8133,-18.1143],[-69.8539,-18.1655],[-69.9607,-18.2633],[-70.0504,-18.269],[-70.1498,-18.3179],[-70.2865,-18.3077],[-70.3762,-18.3509],[-70.4809,-18.2736],[-70.6784,-18.162],[-70.813,-18.0403],[-70.8792,-18.0153],[-70.8953,-17.9629],[-71.0106,-17.8765],[-71.0971,-17.8673],[-71.1399,-17.8218],[-71.1035,-17.7558],[-70.9935,-17.6796],[-70.9124,-17.6876],[-70.8792,-17.5556],[-70.7351,-17.4008],[-70.7521,-17.3804],[-70.7158,-17.2734],[-70.6838,-17.2245],[-70.6101,-17.2142],[-70.5279,-17.1687],[-70.4915,-17.0913],[-70.4499,-17.0811],[-70.4648,-16.9457],[-70.4413,-16.841],[-70.3078,-16.7728],[-70.2053,-16.808],[-70.2587,-16.9025],[-70.247,-16.9525],[-70.1466,-16.9389],[-70.0996,-17.006],[-70.0472,-17.0561],[-70.0397,-17.1278],[-69.8518,-17.2438],[-69.7888,-17.237],[-69.7321,-17.295],[-69.6937,-17.2745],[-69.6414,-17.2871]]]}},{"type":"Feature","properties":{"NOMBDEP":"TUMBES"},"geometry":{"type":"Polygon","coordinates":[[[-80.4875,-4.0836],[-80.5239,-4.1075],[-80.5612,-4.1746],[-80.6232,-4.2315],[-80.7001,-4.1883],[-80.8037,-4.1758],[-80.8827,-4.1928],[-80.9543,-4.1735],[-80.9714,-4.1268],[-81.0419,-4.087],[-80.9874,-3.9858],[-80.9564,-3.9562],[-80.8336,-3.8754],[-80.7951,-3.7605],[-80.7535,-3.7184],[-80.5826,-3.6364],[-80.5452,-3.5898],[-80.5046,-3.509],[-80.4331,-3.4897],[-80.3807,-3.4931],[-80.2921,-3.4089],[-80.2205,-3.4441],[-80.2397,-3.4783],[-80.2066,-3.534],[-80.1885,-3.5978],[-80.181,-3.7388],[-80.1607,-3.8026],[-80.1586,-3.8697],[-80.1404,-3.9129],[-80.2397,-3.9562],[-80.2985,-4.0176],[-80.3626,-3.9835],[-80.4299,-3.9892],[-80.4875,-4.0836]]]}},{"type":"Feature","properties":{"NOMBDEP":"UCAYALI"},"geometry":{"type":"Polygon","coordinates":[[[-70.6144,-9.9173],[-70.6678,-9.9719],[-70.6731,-10.0356],[-70.6507,-10.08],[-70.7084,-10.1358],[-70.7052,-10.1585],[-70.8173,-10.2564],[-70.8792,-10.2848],[-70.923,-10.3281],[-70.9658,-10.3394],[-70.9668,-10.3815],[-71.0245,-10.4782],[-71.127,-10.5044],[-71.1965,-10.5795],[-71.2296,-10.6887],[-71.221,-10.7616],[-71.2573,-10.7843],[-71.2734,-10.8469],[-71.3577,-10.9516],[-71.5318,-10.9527],[-71.7198,-10.9971],[-71.8352,-11.0005],[-72.0157,-10.9891],[-72.052,-11.0108],[-72.1299,-10.9903],[-72.1823,-11.0108],[-72.1844,-11.0654],[-72.1214,-11.1075],[-72.2004,-11.2053],[-72.1983,-11.2622],[-72.2389,-11.3453],[-72.3072,-11.3066],[-72.3788,-11.3328],[-72.4803,-11.3874],[-72.5347,-11.4352],[-72.6095,-11.4283],[-72.7067,-11.3817],[-72.7387,-11.3476],[-72.7943,-11.384],[-72.8968,-11.3578],[-72.9524,-11.3305],[-72.9395,-11.2816],[-72.9684,-11.2645],[-72.9897,-11.1985],[-73.0261,-11.2645],[-73.1371,-11.2941],[-73.2034,-11.2895],[-73.2578,-11.3123],[-73.3315,-11.3111],[-73.4202,-11.384],[-73.4843,-11.3191],[-73.4597,-11.3032],[-73.4501,-11.2247],[-73.4821,-11.0654],[-73.543,-11.0472],[-73.5718,-10.9584],[-73.5601,-10.8606],[-73.6103,-10.8469],[-73.6957,-10.7729],[-73.7577,-10.7354],[-73.8143,-10.8003],[-73.8239,-10.9209],[-73.8538,-10.955],[-73.8666,-11.0369],[-73.8613,-11.145],[-73.9788,-11.1211],[-73.9788,-11.0699],[-74.0055,-10.9937],[-74.092,-10.9869],[-74.202,-11.0199],[-74.2565,-11.0187],[-74.3739,-11.0563],[-74.4455,-11.0051],[-74.5,-10.996],[-74.5085,-10.9504],[-74.5726,-10.9129],[-74.5096,-10.8799],[-74.485,-10.8367],[-74.3857,-10.8116],[-74.3739,-10.7582],[-74.3173,-10.7263],[-74.281,-10.6751],[-74.2298,-10.6353],[-74.1646,-10.6387],[-74.1326,-10.6045],[-74.1817,-10.5044],[-74.2191,-10.4521],[-74.2554,-10.4521],[-74.2768,-10.3736],[-74.2244,-10.2791],[-74.2319,-10.1847],[-74.3035,-10.1631],[-74.328,-10.1096],[-74.3665,-10.113],[-74.4006,-10.0709],[-74.4241,-9.989],[-74.4145,-9.9025],[-74.4498,-9.8706],[-74.4476,-9.7796],[-74.485,-9.7022],[-74.4968,-9.593],[-74.5758,-9.5703],[-74.5844,-9.4952],[-74.6773,-9.428],[-74.6741,-9.395],[-74.5897,-9.3029],[-74.6399,-9.1595],[-74.641,-9.1185],[-74.6783,-9.0935],[-74.6516,-9.0491],[-74.6442,-8.9183],[-74.6089,-8.8204],[-74.532,-8.776],[-74.5256,-8.7499],[-74.547,-8.5849],[-74.6175,-8.5485],[-74.798,-8.6315],[-74.8471,-8.6611],[-74.8503,-8.7567],[-74.9411,-8.858],[-74.9347,-8.9308],[-74.9785,-8.9524],[-75.0458,-8.9046],[-75.0949,-8.9228],[-75.143,-8.9718],[-75.1515,-9.0389],[-75.1814,-9.081],[-75.238,-9.1072],[-75.2102,-9.1595],[-75.2102,-9.23],[-75.2626,-9.2699],[-75.2829,-9.3097],[-75.3288,-9.2972],[-75.4516,-9.2972],[-75.4943,-9.3768],[-75.5627,-9.4007],[-75.6706,-9.3962],[-75.7315,-9.2721],[-75.7945,-9.1879],[-75.8062,-9.1219],[-75.8756,-9.0218],[-75.8746,-8.9706],[-75.9173,-8.8796],[-75.9216,-8.7806],[-75.9461,-8.7157],[-75.8917,-8.6611],[-75.8329,-8.652],[-75.7795,-8.5473],[-75.7784,-8.4939],[-75.7165,-8.487],[-75.7069,-8.4392],[-75.6481,-8.4097],[-75.599,-8.4119],[-75.5467,-8.4666],[-75.4409,-8.437],[-75.4356,-8.3926],[-75.504,-8.3494],[-75.5029,-8.289],[-75.4719,-8.2526],[-75.4303,-8.1662],[-75.3758,-8.1389],[-75.2882,-8.1252],[-75.2444,-8.1559],[-75.2145,-8.1275],[-75.1846,-8.0171],[-75.143,-7.9784],[-75.0329,-7.95],[-74.9827,-7.9693],[-74.8962,-8.0808],[-74.7713,-8.0365],[-74.7275,-7.9807],[-74.6281,-7.9397],[-74.5694,-7.8157],[-74.516,-7.777],[-74.5577,-7.7486],[-74.5844,-7.6985],[-74.5705,-7.6689],[-74.6431,-7.562],[-74.6431,-7.5005],[-74.6164,-7.4345],[-74.579,-7.4095],[-74.5352,-7.2946],[-74.5021,-7.2661],[-74.4626,-7.2991],[-74.3163,-7.3515],[-74.2586,-7.3435],[-74.1806,-7.3583],[-74.1379,-7.3958],[-74.0396,-7.4482],[-74.0343,-7.4846],[-73.983,-7.5347],[-73.889,-7.6029],[-73.8997,-7.6393],[-73.8378,-7.6701],[-73.8036,-7.7144],[-73.7139,-7.7429],[-73.6765,-7.7998],[-73.6786,-7.8578],[-73.7673,-7.9102],[-73.7064,-7.9614],[-73.669,-8.0126],[-73.6402,-8.0069],[-73.5846,-8.1263],[-73.5953,-8.1662],[-73.5633,-8.2458],[-73.5259,-8.2743],[-73.543,-8.3471],[-73.3732,-8.4722],[-73.3304,-8.4757],[-73.3443,-8.6031],[-73.3198,-8.6111],[-73.2514,-8.6907],[-73.167,-8.6987],[-73.1147,-8.7851],[-73.1115,-8.8193],[-73.0367,-8.916],[-73.0015,-8.9171],[-72.9481,-9.0286],[-72.9395,-9.0935],[-72.963,-9.1436],[-73.0645,-9.2278],[-73.1564,-9.3563],[-73.1884,-9.3632],[-73.2001,-9.411],[-72.7174,-9.4121],[-72.5305,-9.4826],[-72.4066,-9.477],[-72.2816,-9.5418],[-72.288,-9.6032],[-72.2464,-9.6567],[-72.2592,-9.7125],[-72.2154,-9.7785],[-72.1513,-9.7978],[-72.162,-9.8308],[-72.1502,-9.9059],[-72.1737,-9.9298],[-72.1801,-9.9992],[-71.7358,-9.9992],[-71.3748,-10.0004],[-71.3428,-9.9662],[-71.2979,-9.9924],[-71.1922,-9.94],[-71.158,-9.8718],[-71.0512,-9.816],[-70.9989,-9.8183],[-70.9743,-9.7603],[-70.9241,-9.7421],[-70.8686,-9.6647],[-70.7991,-9.6419],[-70.75,-9.5691],[-70.6582,-9.5145],[-70.5631,-9.4303],[-70.514,-9.4929],[-70.5396,-9.535],[-70.5919,-9.5486],[-70.5983,-9.6078],[-70.5514,-9.6692],[-70.5279,-9.7261],[-70.5364,-9.766],[-70.6122,-9.8058],[-70.6144,-9.9173]]]}}]}